{
"type": "FeatureCollection",
"name": "BunkerLayer",
"crs": { "type": "name", "properties": { "name": "urn:ogc:def:crs:OGC:1.3:CRS84" } },
"features": [
{ "type": "Feature", "properties": { "fid": 1, "Typ": "KSP III", "Nr": "683", "Tillgänglighet": "Lätt tillgänglig från Råås strandpromenad", "Bild": "Pictures/varn683.jpg", "Parkering": "Inom 500m", "Mindre kuriosa": "-", "Modell": "https://skfb.ly/pFLRt", "Status": "Kvar", "Plomberad": "JA" }, "geometry": { "type": "Point", "coordinates": [ 12.724119544697173, 56.003620406312777 ] } },
{ "type": "Feature", "properties": { "fid": 2, "Typ": "KSP III", "Nr": "687", "Tillgänglighet": "Lättillgänglig via strandpromenaden vid Råå", "Bild": "Pictures/varn687.jpg", "Parkering": "Inom 300m", "Mindre kuriosa": "-", "Modell": "-", "Status": "Kvar", "Plomberad": "JA" }, "geometry": { "type": "Point", "coordinates": [ 12.721190519285669, 56.004703497236328 ] } },
{ "type": "Feature", "properties": { "fid": 3, "Typ": "PV", "Nr": "684", "Tillgänglighet": "Lättillgänglig men krävs att få tillstånd att komma in i område via grinden via baksida", "Bild": "", "Parkering": "Inom 300m", "Mindre kuriosa": "-", "Modell": "-", "Status": "Kvar", "Plomberad": "JA" }, "geometry": { "type": "Point", "coordinates": [ 12.718192839282894, 56.006154001899091 ] } },
{ "type": "Feature", "properties": { "fid": 4, "Typ": "KSP III", "Nr": "725", "Tillgänglighet": "Lättillgänglig genom Råå stransdpromenad", "Bild": "", "Parkering": "Inom 500m", "Mindre kuriosa": "-", "Modell": "-", "Status": "Kvar", "Plomberad": "JA" }, "geometry": { "type": "Point", "coordinates": [ 12.732940058919207, 56.000761023729808 ] } },
{ "type": "Feature", "properties": { "fid": 5, "Typ": "PV", "Nr": "725a", "Tillgänglighet": "Väg mot sofiero", "Bild": "", "Parkering": "Inom 10m", "Mindre kuriosa": "-", "Modell": "-", "Status": "Kvar", "Plomberad": "JA" }, "geometry": { "type": "Point", "coordinates": [ 12.669422111690546, 56.071803407050886 ] } },
{ "type": "Feature", "properties": { "fid": 6, "Typ": "KSP IV", "Nr": "725", "Tillgänglighet": "På väg mot Sofiero Väldigt lättillgängligt", "Bild": "", "Parkering": "Inom 100m", "Mindre kuriosa": "-", "Modell": "-", "Status": "Kvar", "Plomberad": "JA" }, "geometry": { "type": "Point", "coordinates": [ 12.668606793953945, 56.072172704918977 ] } },
{ "type": "Feature", "properties": { "fid": 9, "Typ": "Observationsvärn", "Nr": "724", "Tillgänglighet": "Lättillgänglig från Landborgspromenaden finns parkering i närheten", "Bild": "", "Parkering": "Inom 500m", "Mindre kuriosa": "-", "Modell": "-", "Status": "Kvar", "Plomberad": "JA" }, "geometry": { "type": "Point", "coordinates": [ 12.672377140088141, 56.071547208534327 ] } },
{ "type": "Feature", "properties": { "fid": 11, "Typ": "KG III", "Nr": "1813", "Tillgänglighet": "Väldigt lätt, Landborgspromenaden parkering finns inom 300m", "Bild": "", "Parkering": "Inom 100m", "Mindre kuriosa": "-", "Modell": "-", "Status": "Kvar", "Plomberad": "JA" }, "geometry": { "type": "Point", "coordinates": [ 12.674201324456687, 56.070927706814523 ] } },
{ "type": "Feature", "properties": { "fid": 12, "Typ": "KG III", "Nr": "1812", "Tillgänglighet": "Väldigt lätt, Landborgspromenaden", "Bild": "", "Parkering": "Inom 300m", "Mindre kuriosa": "-", "Modell": "-", "Status": "Kvar", "Plomberad": "JA" }, "geometry": { "type": "Point", "coordinates": [ 12.67424169803329, 56.07037807898935 ] } },
{ "type": "Feature", "properties": { "fid": 13, "Typ": "KG III", "Nr": "1814", "Tillgänglighet": "Väldigt lätt, Landborgspromenaden", "Bild": "", "Parkering": "Inom 300m", "Mindre kuriosa": "-", "Modell": "-", "Status": "Kvar", "Plomberad": "JA" }, "geometry": { "type": "Point", "coordinates": [ 12.67367541929641, 56.071450402043872 ] } },
{ "type": "Feature", "properties": { "fid": 14, "Typ": "KG III", "Nr": "1815", "Tillgänglighet": "Väldigt lätt, Nära Landborgspromenaden", "Bild": "", "Parkering": "Inom 500m", "Mindre kuriosa": "-", "Modell": "-", "Status": "Kvar", "Plomberad": "JA" }, "geometry": { "type": "Point", "coordinates": [ 12.672392902823914, 56.071933874187188 ] } },
{ "type": "Feature", "properties": { "fid": 15, "Typ": "KSP I", "Nr": "1816", "Tillgänglighet": "Väldigt lätt, nära Landborgspromenaden", "Bild": "", "Parkering": "Inom 500m", "Mindre kuriosa": "-", "Modell": "-", "Status": "Kvar", "Plomberad": "JA" }, "geometry": { "type": "Point", "coordinates": [ 12.672543910487081, 56.072436948023743 ] } },
{ "type": "Feature", "properties": { "fid": 16, "Typ": "KG III", "Nr": "1817", "Tillgänglighet": "Okänd", "Bild": "", "Parkering": "Inom 700m", "Mindre kuriosa": "-", "Modell": "-", "Status": "Kvar", "Plomberad": "JA" }, "geometry": { "type": "Point", "coordinates": [ 12.671331130192264, 56.071515079964023 ] } },
{ "type": "Feature", "properties": { "fid": 17, "Typ": "KG III", "Nr": "1811", "Tillgänglighet": "Väldigt lätt, Vid Landborgspromenaden", "Bild": "", "Parkering": "Inom 700m", "Mindre kuriosa": "-", "Modell": "-", "Status": "Kvar", "Plomberad": "JA" }, "geometry": { "type": "Point", "coordinates": [ 12.676194835343464, 56.068669441480679 ] } },
{ "type": "Feature", "properties": { "fid": 18, "Typ": "KG III", "Nr": "1810", "Tillgänglighet": "Okänd", "Bild": "", "Parkering": "Inom 500m", "Mindre kuriosa": "-", "Modell": "-", "Status": "Kvar", "Plomberad": "JA" }, "geometry": { "type": "Point", "coordinates": [ 12.676859688527127, 56.067943584194445 ] } },
{ "type": "Feature", "properties": { "fid": 19, "Typ": "KG III", "Nr": "1809", "Tillgänglighet": "Okänd", "Bild": "", "Parkering": "Inom 100m", "Mindre kuriosa": "-", "Modell": "-", "Status": "Kvar", "Plomberad": "JA" }, "geometry": { "type": "Point", "coordinates": [ 12.678036289902646, 56.066914482455019 ] } },
{ "type": "Feature", "properties": { "fid": 20, "Typ": "KSP I", "Nr": "1808", "Tillgänglighet": "Okänd", "Bild": "", "Parkering": "Inom 500m", "Mindre kuriosa": "-", "Modell": "-", "Status": "Kvar", "Plomberad": "JA" }, "geometry": { "type": "Point", "coordinates": [ 12.67798228368979, 56.066248010272048 ] } },
{ "type": "Feature", "properties": { "fid": 21, "Typ": "KSP IV", "Nr": "1818", "Tillgänglighet": "Vädigt lätt.", "Bild": "", "Parkering": "Inom 50m", "Mindre kuriosa": "-", "Modell": "-", "Status": "Kvar", "Plomberad": "JA" }, "geometry": { "type": "Point", "coordinates": [ 12.678031046581019, 56.065224132007586 ] } },
{ "type": "Feature", "properties": { "fid": 22, "Typ": "KG III", "Nr": "1807", "Tillgänglighet": "Okänd", "Bild": "", "Parkering": "Inom 500m", "Mindre kuriosa": "-", "Modell": "-", "Status": "Kvar", "Plomberad": "JA" }, "geometry": { "type": "Point", "coordinates": [ 12.681853428054959, 56.064552361769032 ] } },
{ "type": "Feature", "properties": { "fid": 23, "Typ": "KSP I", "Nr": "1823", "Tillgänglighet": "Väldigt lätt, inne i Sofiero", "Bild": "", "Parkering": "Inom 500m", "Mindre kuriosa": "-", "Modell": "-", "Status": "Kvar", "Plomberad": "JA" }, "geometry": { "type": "Point", "coordinates": [ 12.659221154537647, 56.083260078160293 ] } },
{ "type": "Feature", "properties": { "fid": 24, "Typ": "KSP IV", "Nr": "727", "Tillgänglighet": "Väldigt lätt, Vid gångväg", "Bild": "Pictures/varn727.jpg", "Parkering": "Inom 1km", "Mindre kuriosa": "-", "Modell": "-", "Status": "Kvar", "Plomberad": "JA" }, "geometry": { "type": "Point", "coordinates": [ 12.654096921842559, 56.085027860323407 ] } },
{ "type": "Feature", "properties": { "fid": 25, "Typ": "KSP IV", "Nr": "1834", "Tillgänglighet": "Väldigt lätt, men inne i buskage", "Bild": "", "Parkering": "Inom 300m", "Mindre kuriosa": "-", "Modell": "-", "Status": "Kvar", "Plomberad": "JA" }, "geometry": { "type": "Point", "coordinates": [ 12.648634691526276, 56.088867265618831 ] } },
{ "type": "Feature", "properties": { "fid": 26, "Typ": "KG III", "Nr": "1832", "Tillgänglighet": "Lättilgänglig", "Bild": "", "Parkering": "Inom 500m", "Mindre kuriosa": "-", "Modell": "-", "Status": "Kvar", "Plomberad": "JA" }, "geometry": { "type": "Point", "coordinates": [ 12.648375147105197, 56.09096419733487 ] } },
{ "type": "Feature", "properties": { "fid": 27, "Typ": "Observationsvärn", "Nr": "729", "Tillgänglighet": "Lättillgängligt via stigen till den", "Bild": "", "Parkering": "Inom 500m", "Mindre kuriosa": "-", "Modell": "-", "Status": "Kvar", "Plomberad": "JA" }, "geometry": { "type": "Point", "coordinates": [ 12.646315308199744, 56.091077399440053 ] } },
{ "type": "Feature", "properties": { "fid": 28, "Typ": "KSP III", "Nr": "728", "Tillgänglighet": "Väldigt lätt", "Bild": "Pictures/varn728.jpg", "Parkering": "Inom 100m", "Mindre kuriosa": "-", "Modell": "-", "Status": "Kvar", "Plomberad": "JA" }, "geometry": { "type": "Point", "coordinates": [ 12.640367021967625, 56.093959992094163 ] } },
{ "type": "Feature", "properties": { "fid": 29, "Typ": "PV", "Nr": "728a", "Tillgänglighet": "Väldigt lätt", "Bild": "", "Parkering": "Inom 100m", "Mindre kuriosa": "-", "Modell": "-", "Status": "Kvar", "Plomberad": "JA" }, "geometry": { "type": "Point", "coordinates": [ 12.641416997125617, 56.093151505857278 ] } },
{ "type": "Feature", "properties": { "fid": 30, "Typ": "KSP III", "Nr": "733", "Tillgänglighet": "Väldigt lätt", "Bild": "Pictures/varn733.jpg", "Parkering": "Inom 100m om man parkerar snällt", "Mindre kuriosa": "-", "Modell": "-", "Status": "Kvar", "Plomberad": "JA" }, "geometry": { "type": "Point", "coordinates": [ 12.611490345628145, 56.11355399324502 ] } },
{ "type": "Feature", "properties": { "fid": 31, "Typ": "KG I", "Nr": "1713", "Tillgänglighet": "Lätt tillgängligt", "Bild": "", "Parkering": "Inom 100m om man parkerar snällt", "Mindre kuriosa": "Den enda värnet i Sverige av sitt slag kvar. ", "Modell": "-", "Status": "Kvar", "Plomberad": "JA" }, "geometry": { "type": "Point", "coordinates": [ 12.75399580546128, 55.989350131182071 ] } },
{ "type": "Feature", "properties": { "fid": 32, "Typ": "KSP IV", "Nr": "1712", "Tillgänglighet": "Lätt tillgängligt, men inne i en hage", "Bild": "Pictures/varn1712.jpg", "Parkering": "Inom 300m om man parkerar snällt", "Mindre kuriosa": "-", "Modell": "https://sketchfab.com/3d-models/varn1712-70d5a5e2615c4a958dc5730f5625a5f5", "Status": "Kvar", "Plomberad": "JA" }, "geometry": { "type": "Point", "coordinates": [ 12.755375402034007, 55.987171449100217 ] } },
{ "type": "Feature", "properties": { "fid": 33, "Typ": "PV", "Nr": "651", "Tillgänglighet": "Väldigt lätt, anslutande till stig, lite höjdskillnader", "Bild": "Pictures/varn651.jpg", "Parkering": "Inom  100m med camping", "Mindre kuriosa": "-", "Modell": "https://skfb.ly/pGvtT", "Status": "Kvar", "Plomberad": "JA" }, "geometry": { "type": "Point", "coordinates": [ 12.769022277187597, 55.944119645639489 ] } },
{ "type": "Feature", "properties": { "fid": 34, "Typ": "PV", "Nr": "613", "Tillgänglighet": "Lätt tillgängligt", "Bild": "Pictures/varn613.jpg", "Parkering": "Inom 300m Från Citadellet i Landskrona", "Mindre kuriosa": "-", "Modell": "-", "Status": "Kvar", "Plomberad": "JA" }, "geometry": { "type": "Point", "coordinates": [ 12.816290536646823, 55.873917165924944 ] } },
{ "type": "Feature", "properties": { "fid": 35, "Typ": "Skyddsrum", "Nr": "92", "Tillgänglighet": "-", "Bild": "", "Parkering": "-", "Mindre kuriosa": "-", "Modell": "-", "Status": "KVAR", "Plomberad": "JA" }, "geometry": { "type": "Point", "coordinates": [ 12.676911533037645, 56.079069666265688 ] } },
{ "type": "Feature", "properties": { "fid": 36, "Typ": "Skyddsrum", "Nr": "91", "Tillgänglighet": "-", "Bild": "", "Parkering": "-", "Mindre kuriosa": "-", "Modell": "-", "Status": "KVAR", "Plomberad": "JA" }, "geometry": { "type": "Point", "coordinates": [ 12.67791271304198, 56.079499189891202 ] } },
{ "type": "Feature", "properties": { "fid": 37, "Typ": "Skyddsrum", "Nr": "93", "Tillgänglighet": "Väldigt enkel, vid promenadstråk", "Bild": "", "Parkering": "Inom 500m", "Mindre kuriosa": "-", "Modell": "-", "Status": "KVAR", "Plomberad": "JA" }, "geometry": { "type": "Point", "coordinates": [ 12.668961411471392, 56.080945163746335 ] } },
{ "type": "Feature", "properties": { "fid": 38, "Typ": "Skyddsrum", "Nr": "94", "Tillgänglighet": "Väldigt enkel, vid promenadstråk", "Bild": "", "Parkering": "Inom 300m", "Mindre kuriosa": "-", "Modell": "-", "Status": "KVAR", "Plomberad": "JA" }, "geometry": { "type": "Point", "coordinates": [ 12.667190538168926, 56.082643770581306 ] } },
{ "type": "Feature", "properties": { "fid": 39, "Typ": "KG III", "Nr": "1819", "Tillgänglighet": "-", "Bild": "", "Parkering": "-", "Mindre kuriosa": "-", "Modell": "-", "Status": "Rivet", "Plomberad": "JA" }, "geometry": { "type": "Point", "coordinates": [ 12.664968265789344, 56.078529525436423 ] } },
{ "type": "Feature", "properties": { "fid": 40, "Typ": "KG III", "Nr": "1820a", "Tillgänglighet": "Lätt, dock inne på privat mark/tomt.", "Bild": "", "Parkering": "Inom 100m", "Mindre kuriosa": "-", "Modell": "-", "Status": "Kvar", "Plomberad": "JA" }, "geometry": { "type": "Point", "coordinates": [ 12.664460441827602, 56.078283270378094 ] } },
{ "type": "Feature", "properties": { "fid": 41, "Typ": "KSP IV", "Nr": "726", "Tillgänglighet": "Lätt vid strandkanten", "Bild": "", "Parkering": "Inom 600m", "Mindre kuriosa": "-", "Modell": "-", "Status": "Kvar", "Plomberad": "JA" }, "geometry": { "type": "Point", "coordinates": [ 12.661775196035657, 56.078444749282511 ] } },
{ "type": "Feature", "properties": { "fid": 42, "Typ": "-", "Nr": "1820b", "Tillgänglighet": "-", "Bild": "", "Parkering": "-", "Mindre kuriosa": "-", "Modell": "-", "Status": "Rivet (Enligt ägare till 1820a)", "Plomberad": "JA" }, "geometry": { "type": "Point", "coordinates": [ 12.66303744160308, 56.079500086969794 ] } },
{ "type": "Feature", "properties": { "fid": 43, "Typ": "KG III", "Nr": "1842", "Tillgänglighet": "Väldigt lätt", "Bild": "", "Parkering": "Inom 300m", "Mindre kuriosa": "-", "Modell": "-", "Status": "Kvar", "Plomberad": "JA" }, "geometry": { "type": "Point", "coordinates": [ 12.636864741617226, 56.097181416072225 ] } },
{ "type": "Feature", "properties": { "fid": 44, "Typ": "KSP-IV", "Nr": "1591", "Tillgänglighet": "Enkel, Vid strandpromenad", "Bild": "", "Parkering": "-", "Mindre kuriosa": "-", "Modell": "", "Status": "KVAR", "Plomberad": "JA" }, "geometry": { "type": "Point", "coordinates": [ 12.868630844901105, 56.432764325369604 ] } },
{ "type": "Feature", "properties": { "fid": 45, "Typ": "KSP-IV", "Nr": "1590", "Tillgänglighet": "Väldigt lätt", "Bild": "", "Parkering": "Inom 10m", "Mindre kuriosa": "-", "Modell": "", "Status": "KVAR", "Plomberad": "JA" }, "geometry": { "type": "Point", "coordinates": [ 12.86115386950126, 56.431008037601515 ] } },
{ "type": "Feature", "properties": { "fid": 46, "Typ": "PV", "Nr": "1589", "Tillgänglighet": "Väldigt enkel", "Bild": "", "Parkering": "-", "Mindre kuriosa": "-", "Modell": "", "Status": "KVAR", "Plomberad": "JA" }, "geometry": { "type": "Point", "coordinates": [ 12.857132782649492, 56.430052237380266 ] } },
{ "type": "Feature", "properties": { "fid": 47, "Typ": "KSP-IV", "Nr": "1588", "Tillgänglighet": "Enkel", "Bild": "", "Parkering": "-", "Mindre kuriosa": "-", "Modell": "", "Status": "KVAR", "Plomberad": "JA" }, "geometry": { "type": "Point", "coordinates": [ 12.84835633944342, 56.430961463147597 ] } },
{ "type": "Feature", "properties": { "fid": 48, "Typ": "KSP-IV", "Nr": "1587", "Tillgänglighet": "Väldigt enkel", "Bild": "", "Parkering": "-", "Mindre kuriosa": "-", "Modell": "", "Status": "KVAR", "Plomberad": "JA" }, "geometry": { "type": "Point", "coordinates": [ 12.833617847608322, 56.436946825475083 ] } },
{ "type": "Feature", "properties": { "fid": 49, "Typ": "KSP-IV", "Nr": "1586", "Tillgänglighet": "Väldigt enkel", "Bild": "", "Parkering": "-", "Mindre kuriosa": "-", "Modell": "", "Status": "KVAR", "Plomberad": "JA" }, "geometry": { "type": "Point", "coordinates": [ 12.829611409524686, 56.438174086293174 ] } },
{ "type": "Feature", "properties": { "fid": 50, "Typ": "PV", "Nr": "1585", "Tillgänglighet": "Väldigt enkel", "Bild": "", "Parkering": "-", "Mindre kuriosa": "-", "Modell": "", "Status": "KVAR", "Plomberad": "JA" }, "geometry": { "type": "Point", "coordinates": [ 12.828676329825697, 56.438319856735447 ] } },
{ "type": "Feature", "properties": { "fid": 51, "Typ": "Observationsvärn", "Nr": "1584", "Tillgänglighet": "Enkel", "Bild": "", "Parkering": "-", "Mindre kuriosa": "-", "Modell": "", "Status": "KVAR", "Plomberad": "JA" }, "geometry": { "type": "Point", "coordinates": [ 12.81851252620462, 56.441992277588234 ] } },
{ "type": "Feature", "properties": { "fid": 52, "Typ": "KSP-IV", "Nr": "1583", "Tillgänglighet": "Enkel", "Bild": "", "Parkering": "-", "Mindre kuriosa": "-", "Modell": "", "Status": "KVAR", "Plomberad": "JA" }, "geometry": { "type": "Point", "coordinates": [ 12.816676547265619, 56.442405250902546 ] } },
{ "type": "Feature", "properties": { "fid": 53, "Typ": "PV", "Nr": "1582", "Tillgänglighet": "-", "Bild": "", "Parkering": "-", "Mindre kuriosa": "-", "Modell": "", "Status": "KVAR", "Plomberad": "JA" }, "geometry": { "type": "Point", "coordinates": [ 12.813739469255493, 56.443085432461743 ] } },
{ "type": "Feature", "properties": { "fid": 54, "Typ": "KSP IV", "Nr": "1581", "Tillgänglighet": "Enkel", "Bild": "", "Parkering": "-", "Mindre kuriosa": "-", "Modell": "", "Status": "KVAR", "Plomberad": "JA" }, "geometry": { "type": "Point", "coordinates": [ 12.803553692482225, 56.446491555399035 ] } },
{ "type": "Feature", "properties": { "fid": 55, "Typ": "KSP IV", "Nr": "1580", "Tillgänglighet": "Enkel", "Bild": "", "Parkering": "-", "Mindre kuriosa": "-", "Modell": "", "Status": "KVAR", "Plomberad": "JA" }, "geometry": { "type": "Point", "coordinates": [ 12.796441715554963, 56.449990475514461 ] } },
{ "type": "Feature", "properties": { "fid": 56, "Typ": "KSP IV", "Nr": "1579", "Tillgänglighet": "-", "Bild": "", "Parkering": "-", "Mindre kuriosa": "-", "Modell": "", "Status": "KVAR", "Plomberad": "JA" }, "geometry": { "type": "Point", "coordinates": [ 12.785330624928122, 56.453940598031544 ] } },
{ "type": "Feature", "properties": { "fid": 57, "Typ": "KSP IV", "Nr": "1578", "Tillgänglighet": "Enkel", "Bild": "", "Parkering": "-", "Mindre kuriosa": "-", "Modell": "", "Status": "KVAR", "Plomberad": "JA" }, "geometry": { "type": "Point", "coordinates": [ 12.779111409036364, 56.455600039681968 ] } },
{ "type": "Feature", "properties": { "fid": 58, "Typ": "PV", "Nr": "1577a", "Tillgänglighet": "Enkel", "Bild": "", "Parkering": "-", "Mindre kuriosa": "-", "Modell": "", "Status": "KVAR", "Plomberad": "JA" }, "geometry": { "type": "Point", "coordinates": [ 12.774132455512961, 56.457042660673665 ] } },
{ "type": "Feature", "properties": { "fid": 59, "Typ": "Observationsvärn", "Nr": "1577", "Tillgänglighet": "-", "Bild": "", "Parkering": "-", "Mindre kuriosa": "-", "Modell": "", "Status": "KVAR", "Plomberad": "JA" }, "geometry": { "type": "Point", "coordinates": [ 12.770092650790795, 56.458218122431241 ] } },
{ "type": "Feature", "properties": { "fid": 60, "Typ": "KSP IV", "Nr": "1576", "Tillgänglighet": "Enkel", "Bild": "", "Parkering": "-", "Mindre kuriosa": "-", "Modell": "", "Status": "KVAR", "Plomberad": "JA" }, "geometry": { "type": "Point", "coordinates": [ 12.769186054807616, 56.458649805451365 ] } },
{ "type": "Feature", "properties": { "fid": 61, "Typ": "PV", "Nr": "1575", "Tillgänglighet": "-", "Bild": "", "Parkering": "-", "Mindre kuriosa": "-", "Modell": "", "Status": "RIVET", "Plomberad": "-" }, "geometry": { "type": "Point", "coordinates": [ 12.761886899176469, 56.460228104731925 ] } },
{ "type": "Feature", "properties": { "fid": 62, "Typ": "KSP IV", "Nr": "1574", "Tillgänglighet": "-", "Bild": "", "Parkering": "-", "Mindre kuriosa": "-", "Modell": "", "Status": "KVAR", "Plomberad": "JA" }, "geometry": { "type": "Point", "coordinates": [ 12.758921744360759, 56.461044545351356 ] } },
{ "type": "Feature", "properties": { "fid": 63, "Typ": "PV", "Nr": "1573a", "Tillgänglighet": "Lätt", "Bild": "", "Parkering": "Inom 50m", "Mindre kuriosa": "-", "Modell": "", "Status": "KVAR", "Plomberad": "JA" }, "geometry": { "type": "Point", "coordinates": [ 12.755146939923163, 56.463286884583603 ] } },
{ "type": "Feature", "properties": { "fid": 64, "Typ": "Observationsvärn", "Nr": "1573", "Tillgänglighet": "-", "Bild": "", "Parkering": "-", "Mindre kuriosa": "-", "Modell": "", "Status": "KVAR", "Plomberad": "JA" }, "geometry": { "type": "Point", "coordinates": [ 12.746797142088862, 56.467424722681478 ] } },
{ "type": "Feature", "properties": { "fid": 65, "Typ": "KSP IV", "Nr": "1572", "Tillgänglighet": "Lätt", "Bild": "", "Parkering": "-", "Mindre kuriosa": "-", "Modell": "", "Status": "KVAR", "Plomberad": "JA" }, "geometry": { "type": "Point", "coordinates": [ 12.74596216230543, 56.468190939516184 ] } },
{ "type": "Feature", "properties": { "fid": 66, "Typ": "PV", "Nr": "1571", "Tillgänglighet": "Lätt", "Bild": "", "Parkering": "-", "Mindre kuriosa": "-", "Modell": "", "Status": "KVAR", "Plomberad": "JA" }, "geometry": { "type": "Point", "coordinates": [ 12.743435249802937, 56.468426870497247 ] } },
{ "type": "Feature", "properties": { "fid": 67, "Typ": "KSP IV", "Nr": "1570", "Tillgänglighet": "-", "Bild": "", "Parkering": "-", "Mindre kuriosa": "-", "Modell": "", "Status": "KVAR", "Plomberad": "JA" }, "geometry": { "type": "Point", "coordinates": [ 12.740025291246594, 56.469212032175463 ] } },
{ "type": "Feature", "properties": { "fid": 68, "Typ": "KSP IV", "Nr": "1569", "Tillgänglighet": "-", "Bild": "", "Parkering": "-", "Mindre kuriosa": "-", "Modell": "", "Status": "KVAR", "Plomberad": "JA" }, "geometry": { "type": "Point", "coordinates": [ 12.727095006727527, 56.471955545325727 ] } },
{ "type": "Feature", "properties": { "fid": 69, "Typ": "Observationsvärn", "Nr": "1568", "Tillgänglighet": "Lätt", "Bild": "", "Parkering": "Inom 200m, Hovs hallar parkering", "Mindre kuriosa": "-", "Modell": "", "Status": "KVAR", "Plomberad": "JA" }, "geometry": { "type": "Point", "coordinates": [ 12.712052552953649, 56.469105448378357 ] } },
{ "type": "Feature", "properties": { "fid": 70, "Typ": "KSP IV", "Nr": "1567", "Tillgänglighet": "-", "Bild": "", "Parkering": "Inom 500m, Hovs hallar parkering", "Mindre kuriosa": "-", "Modell": "", "Status": "KVAR", "Plomberad": "JA" }, "geometry": { "type": "Point", "coordinates": [ 12.702871208640952, 56.469692603800866 ] } },
{ "type": "Feature", "properties": { "fid": 71, "Typ": "KSP IV", "Nr": "1566", "Tillgänglighet": "-", "Bild": "", "Parkering": "-", "Mindre kuriosa": "-", "Modell": "", "Status": "KVAR", "Plomberad": "JA" }, "geometry": { "type": "Point", "coordinates": [ 12.692282895926724, 56.461781173197046 ] } },
{ "type": "Feature", "properties": { "fid": 72, "Typ": "PV", "Nr": "1564", "Tillgänglighet": "-", "Bild": "", "Parkering": "-", "Mindre kuriosa": "-", "Modell": "", "Status": "KVAR", "Plomberad": "JA" }, "geometry": { "type": "Point", "coordinates": [ 12.687991951299539, 56.459233960882862 ] } },
{ "type": "Feature", "properties": { "fid": 73, "Typ": "KSP IV", "Nr": "1565", "Tillgänglighet": "-", "Bild": "", "Parkering": "-", "Mindre kuriosa": "-", "Modell": "", "Status": "KVAR", "Plomberad": "JA" }, "geometry": { "type": "Point", "coordinates": [ 12.686327485020728, 56.458906157079255 ] } },
{ "type": "Feature", "properties": { "fid": 74, "Typ": "PV", "Nr": "1563", "Tillgänglighet": "Lätt", "Bild": "", "Parkering": "-", "Mindre kuriosa": "-", "Modell": "", "Status": "KVAR", "Plomberad": "JA" }, "geometry": { "type": "Point", "coordinates": [ 12.683289010068689, 56.456428187502311 ] } },
{ "type": "Feature", "properties": { "fid": 75, "Typ": "KSP V", "Nr": "1562", "Tillgänglighet": "-", "Bild": "", "Parkering": "-", "Mindre kuriosa": "-", "Modell": "", "Status": "KVAR", "Plomberad": "JA" }, "geometry": { "type": "Point", "coordinates": [ 12.67855036246552, 56.453015450326376 ] } },
{ "type": "Feature", "properties": { "fid": 76, "Typ": "KSP IV", "Nr": "1561", "Tillgänglighet": "-", "Bild": "", "Parkering": "-", "Mindre kuriosa": "-", "Modell": "", "Status": "KVAR", "Plomberad": "JA" }, "geometry": { "type": "Point", "coordinates": [ 12.671627446201914, 56.453854813271107 ] } },
{ "type": "Feature", "properties": { "fid": 77, "Typ": "Observationsvärn", "Nr": "1560", "Tillgänglighet": "-", "Bild": "", "Parkering": "-", "Mindre kuriosa": "-", "Modell": "", "Status": "KVAR", "Plomberad": "JA" }, "geometry": { "type": "Point", "coordinates": [ 12.654874748748837, 56.447218836899609 ] } },
{ "type": "Feature", "properties": { "fid": 78, "Typ": "KSP IV", "Nr": "1559", "Tillgänglighet": "-", "Bild": "", "Parkering": "-", "Mindre kuriosa": "-", "Modell": "", "Status": "KVAR", "Plomberad": "JA" }, "geometry": { "type": "Point", "coordinates": [ 12.651359044397564, 56.448929172704375 ] } },
{ "type": "Feature", "properties": { "fid": 79, "Typ": "KSP IV", "Nr": "1558", "Tillgänglighet": "-", "Bild": "", "Parkering": "-", "Mindre kuriosa": "-", "Modell": "", "Status": "KVAR", "Plomberad": "JA" }, "geometry": { "type": "Point", "coordinates": [ 12.644367919807374, 56.446527090466041 ] } },
{ "type": "Feature", "properties": { "fid": 80, "Typ": "PV", "Nr": "1557", "Tillgänglighet": "-", "Bild": "", "Parkering": "-", "Mindre kuriosa": "-", "Modell": "", "Status": "KVAR", "Plomberad": "JA" }, "geometry": { "type": "Point", "coordinates": [ 12.644163981488566, 56.444067670525534 ] } },
{ "type": "Feature", "properties": { "fid": 81, "Typ": "KSP IV", "Nr": "1556", "Tillgänglighet": "-", "Bild": "", "Parkering": "-", "Mindre kuriosa": "-", "Modell": "", "Status": "KVAR", "Plomberad": "JA" }, "geometry": { "type": "Point", "coordinates": [ 12.640855648761169, 56.441078577865134 ] } },
{ "type": "Feature", "properties": { "fid": 82, "Typ": "Observationsvärn", "Nr": "1555", "Tillgänglighet": "-", "Bild": "", "Parkering": "-", "Mindre kuriosa": "-", "Modell": "", "Status": "KVAR", "Plomberad": "JA" }, "geometry": { "type": "Point", "coordinates": [ 12.637722414590314, 56.437752153071884 ] } },
{ "type": "Feature", "properties": { "fid": 83, "Typ": "KSP IV", "Nr": "1554", "Tillgänglighet": "-", "Bild": "", "Parkering": "-", "Mindre kuriosa": "-", "Modell": "", "Status": "KVAR", "Plomberad": "JA" }, "geometry": { "type": "Point", "coordinates": [ 12.635604752047493, 56.437144383848683 ] } },
{ "type": "Feature", "properties": { "fid": 84, "Typ": "PV", "Nr": "1553", "Tillgänglighet": "-", "Bild": "", "Parkering": "-", "Mindre kuriosa": "-", "Modell": "", "Status": "RIVET", "Plomberad": "-" }, "geometry": { "type": "Point", "coordinates": [ 12.632661722975355, 56.430047835761293 ] } },
{ "type": "Feature", "properties": { "fid": 85, "Typ": "KSP V", "Nr": "1552", "Tillgänglighet": "-", "Bild": "", "Parkering": "Inom 10m", "Mindre kuriosa": "-", "Modell": "", "Status": "KVAR", "Plomberad": "JA" }, "geometry": { "type": "Point", "coordinates": [ 12.628150360165279, 56.426525645902281 ] } },
{ "type": "Feature", "properties": { "fid": 86, "Typ": "KSP IV", "Nr": "1551", "Tillgänglighet": "-", "Bild": "", "Parkering": "-", "Mindre kuriosa": "-", "Modell": "", "Status": "KVAR", "Plomberad": "JA" }, "geometry": { "type": "Point", "coordinates": [ 12.623346479766626, 56.427364075144197 ] } },
{ "type": "Feature", "properties": { "fid": 87, "Typ": "Observationsvärn", "Nr": "1550", "Tillgänglighet": "-", "Bild": "", "Parkering": "-", "Mindre kuriosa": "-", "Modell": "", "Status": "KVAR", "Plomberad": "JA" }, "geometry": { "type": "Point", "coordinates": [ 12.620600522403253, 56.423425803381704 ] } },
{ "type": "Feature", "properties": { "fid": 88, "Typ": "KSP IV", "Nr": "1548", "Tillgänglighet": "-", "Bild": "", "Parkering": "-", "Mindre kuriosa": "-", "Modell": "", "Status": "KVAR", "Plomberad": "JA" }, "geometry": { "type": "Point", "coordinates": [ 12.622863070418337, 56.413719266250432 ] } },
{ "type": "Feature", "properties": { "fid": 89, "Typ": "KPS IV", "Nr": "1547", "Tillgänglighet": "-", "Bild": "", "Parkering": "-", "Mindre kuriosa": "-", "Modell": "", "Status": "KVAR", "Plomberad": "JA" }, "geometry": { "type": "Point", "coordinates": [ 12.622169542802185, 56.410138580400222 ] } },
{ "type": "Feature", "properties": { "fid": 90, "Typ": "KSP IV", "Nr": "1546", "Tillgänglighet": "-", "Bild": "", "Parkering": "-", "Mindre kuriosa": "-", "Modell": "", "Status": "KVAR", "Plomberad": "JA" }, "geometry": { "type": "Point", "coordinates": [ 12.622216235750592, 56.403451908091171 ] } },
{ "type": "Feature", "properties": { "fid": 91, "Typ": "Observationsvärn", "Nr": "1544", "Tillgänglighet": "-", "Bild": "", "Parkering": "-", "Mindre kuriosa": "-", "Modell": "", "Status": "RIVET", "Plomberad": "JA" }, "geometry": { "type": "Point", "coordinates": [ 12.629003193134789, 56.398341890732944 ] } },
{ "type": "Feature", "properties": { "fid": 92, "Typ": "Provisoriskt värn", "Nr": "Värn Dagshög", "Tillgänglighet": "-", "Bild": "", "Parkering": "-", "Mindre kuriosa": "-", "Modell": "", "Status": "KVAR", "Plomberad": "JA" }, "geometry": { "type": "Point", "coordinates": [ 12.625924205183468, 56.397449619263739 ] } },
{ "type": "Feature", "properties": { "fid": 93, "Typ": "Provisoriskt värn", "Nr": "Värn Dagshög", "Tillgänglighet": "-", "Bild": "", "Parkering": "-", "Mindre kuriosa": "-", "Modell": "", "Status": "KVAR", "Plomberad": "JA" }, "geometry": { "type": "Point", "coordinates": [ 12.626959689980653, 56.395838309457652 ] } },
{ "type": "Feature", "properties": { "fid": 94, "Typ": "KSP IV", "Nr": "1543", "Tillgänglighet": "-", "Bild": "", "Parkering": "-", "Mindre kuriosa": "-", "Modell": "", "Status": "KVAR", "Plomberad": "JA" }, "geometry": { "type": "Point", "coordinates": [ 12.628653453795671, 56.393319867928668 ] } },
{ "type": "Feature", "properties": { "fid": 95, "Typ": "PV", "Nr": "1542", "Tillgänglighet": "-", "Bild": "", "Parkering": "-", "Mindre kuriosa": "-", "Modell": "", "Status": "KVAR", "Plomberad": "JA" }, "geometry": { "type": "Point", "coordinates": [ 12.630224534177612, 56.393206610155168 ] } },
{ "type": "Feature", "properties": { "fid": 96, "Typ": "KSP IV", "Nr": "1541", "Tillgänglighet": "-", "Bild": "", "Parkering": "-", "Mindre kuriosa": "-", "Modell": "", "Status": "KVAR", "Plomberad": "JA" }, "geometry": { "type": "Point", "coordinates": [ 12.638500172623015, 56.389498562231395 ] } },
{ "type": "Feature", "properties": { "fid": 97, "Typ": "PV", "Nr": "1540", "Tillgänglighet": "-", "Bild": "", "Parkering": "-", "Mindre kuriosa": "-", "Modell": "", "Status": "KVAR", "Plomberad": "JA" }, "geometry": { "type": "Point", "coordinates": [ 12.646119363146596, 56.389741823674228 ] } },
{ "type": "Feature", "properties": { "fid": 98, "Typ": "KSP IV", "Nr": "1539", "Tillgänglighet": "-", "Bild": "", "Parkering": "-", "Mindre kuriosa": "-", "Modell": "", "Status": "KVAR", "Plomberad": "JA" }, "geometry": { "type": "Point", "coordinates": [ 12.655477179337591, 56.387569139876177 ] } },
{ "type": "Feature", "properties": { "fid": 99, "Typ": "KSP IV", "Nr": "1537", "Tillgänglighet": "-", "Bild": "", "Parkering": "-", "Mindre kuriosa": "-", "Modell": "", "Status": "KVAR", "Plomberad": "JA" }, "geometry": { "type": "Point", "coordinates": [ 12.671735480865786, 56.383311090516713 ] } },
{ "type": "Feature", "properties": { "fid": 100, "Typ": "Observationsvärn", "Nr": "1536", "Tillgänglighet": "-", "Bild": "", "Parkering": "-", "Mindre kuriosa": "-", "Modell": "", "Status": "KVAR", "Plomberad": "JA" }, "geometry": { "type": "Point", "coordinates": [ 12.674108581302846, 56.383134696344868 ] } },
{ "type": "Feature", "properties": { "fid": 101, "Typ": "KSP IV", "Nr": "1535", "Tillgänglighet": "-", "Bild": "", "Parkering": "-", "Mindre kuriosa": "-", "Modell": "", "Status": "KVAR", "Plomberad": "JA" }, "geometry": { "type": "Point", "coordinates": [ 12.685710405661792, 56.381839086532445 ] } },
{ "type": "Feature", "properties": { "fid": 102, "Typ": "Observationsvärn", "Nr": "1532", "Tillgänglighet": "-", "Bild": "", "Parkering": "-", "Mindre kuriosa": "-", "Modell": "", "Status": "KVAR", "Plomberad": "JA" }, "geometry": { "type": "Point", "coordinates": [ 12.69821882600387, 56.373985184544999 ] } },
{ "type": "Feature", "properties": { "fid": 103, "Typ": "KSP IV", "Nr": "1532", "Tillgänglighet": "-", "Bild": "", "Parkering": "-", "Mindre kuriosa": "-", "Modell": "", "Status": "KVAR", "Plomberad": "JA" }, "geometry": { "type": "Point", "coordinates": [ 12.711121135444548, 56.36564418967216 ] } },
{ "type": "Feature", "properties": { "fid": 104, "Typ": "KSP IV", "Nr": "1530", "Tillgänglighet": "-", "Bild": "", "Parkering": "-", "Mindre kuriosa": "-", "Modell": "", "Status": "KVAR", "Plomberad": "JA" }, "geometry": { "type": "Point", "coordinates": [ 12.718965279504657, 56.364987265169411 ] } },
{ "type": "Feature", "properties": { "fid": 105, "Typ": "Observationsvärn", "Nr": "1529", "Tillgänglighet": "-", "Bild": "", "Parkering": "-", "Mindre kuriosa": "-", "Modell": "", "Status": "KVAR", "Plomberad": "JA" }, "geometry": { "type": "Point", "coordinates": [ 12.725206739821921, 56.364459553663302 ] } },
{ "type": "Feature", "properties": { "fid": 106, "Typ": "KSP IV", "Nr": "1528", "Tillgänglighet": "-", "Bild": "", "Parkering": "-", "Mindre kuriosa": "-", "Modell": "", "Status": "KVAR", "Plomberad": "JA" }, "geometry": { "type": "Point", "coordinates": [ 12.733974298821146, 56.363138439745903 ] } },
{ "type": "Feature", "properties": { "fid": 107, "Typ": "KSP IV", "Nr": "1526", "Tillgänglighet": "-", "Bild": "", "Parkering": "-", "Mindre kuriosa": "-", "Modell": "", "Status": "KVAR", "Plomberad": "JA" }, "geometry": { "type": "Point", "coordinates": [ 12.740055165235955, 56.358896501079677 ] } },
{ "type": "Feature", "properties": { "fid": 108, "Typ": "KSP IV", "Nr": "1525", "Tillgänglighet": "-", "Bild": "", "Parkering": "-", "Mindre kuriosa": "-", "Modell": "", "Status": "KVAR", "Plomberad": "JA" }, "geometry": { "type": "Point", "coordinates": [ 12.742504222248458, 56.351292650258287 ] } },
{ "type": "Feature", "properties": { "fid": 109, "Typ": "KSP IV", "Nr": "1523", "Tillgänglighet": "-", "Bild": "", "Parkering": "-", "Mindre kuriosa": "-", "Modell": "", "Status": "KVAR", "Plomberad": "JA" }, "geometry": { "type": "Point", "coordinates": [ 12.745922268145408, 56.343913397458621 ] } },
{ "type": "Feature", "properties": { "fid": 110, "Typ": "KSP IV", "Nr": "1522", "Tillgänglighet": "-", "Bild": "", "Parkering": "-", "Mindre kuriosa": "-", "Modell": "", "Status": "KVAR", "Plomberad": "JA" }, "geometry": { "type": "Point", "coordinates": [ 12.744907705315681, 56.339396869579744 ] } },
{ "type": "Feature", "properties": { "fid": 111, "Typ": "Observationsvärn", "Nr": "1521", "Tillgänglighet": "-", "Bild": "", "Parkering": "-", "Mindre kuriosa": "-", "Modell": "", "Status": "KVAR", "Plomberad": "JA" }, "geometry": { "type": "Point", "coordinates": [ 12.746367699205951, 56.338490191856216 ] } },
{ "type": "Feature", "properties": { "fid": 112, "Typ": "KSP IV", "Nr": "1520", "Tillgänglighet": "-", "Bild": "", "Parkering": "-", "Mindre kuriosa": "-", "Modell": "", "Status": "KVAR", "Plomberad": "JA" }, "geometry": { "type": "Point", "coordinates": [ 12.7468852890132, 56.336462042693121 ] } },
{ "type": "Feature", "properties": { "fid": 113, "Typ": "KSP IV", "Nr": "1519", "Tillgänglighet": "-", "Bild": "", "Parkering": "-", "Mindre kuriosa": "-", "Modell": "", "Status": "KVAR", "Plomberad": "JA" }, "geometry": { "type": "Point", "coordinates": [ 12.756862727750475, 56.328359196994874 ] } },
{ "type": "Feature", "properties": { "fid": 114, "Typ": "KSP IV", "Nr": "1518", "Tillgänglighet": "-", "Bild": "", "Parkering": "-", "Mindre kuriosa": "-", "Modell": "", "Status": "KVAR", "Plomberad": "JA" }, "geometry": { "type": "Point", "coordinates": [ 12.759847821167137, 56.324391965116106 ] } },
{ "type": "Feature", "properties": { "fid": 115, "Typ": "KSP IV", "Nr": "1516", "Tillgänglighet": "-", "Bild": "", "Parkering": "-", "Mindre kuriosa": "-", "Modell": "", "Status": "KVAR", "Plomberad": "JA" }, "geometry": { "type": "Point", "coordinates": [ 12.762000285837265, 56.320142105472371 ] } },
{ "type": "Feature", "properties": { "fid": 116, "Typ": "Provisoriskt värn", "Nr": "Vejbystrands krog", "Tillgänglighet": "Enkelt", "Bild": " ", "Parkering": "Inom 100m", "Mindre kuriosa": "-", "Modell": "", "Status": "KVAR", "Plomberad": "JA" }, "geometry": { "type": "Point", "coordinates": [ 12.763384865699008, 56.315442620804305 ] } },
{ "type": "Feature", "properties": { "fid": 117, "Typ": "KSP IV", "Nr": "1515", "Tillgänglighet": "-", "Bild": "", "Parkering": "-", "Mindre kuriosa": "-", "Modell": "", "Status": "KVAR", "Plomberad": "JA" }, "geometry": { "type": "Point", "coordinates": [ 12.762880658716961, 56.311436730157212 ] } },
{ "type": "Feature", "properties": { "fid": 118, "Typ": "Observationsvärn", "Nr": "1514", "Tillgänglighet": "-", "Bild": "", "Parkering": "-", "Mindre kuriosa": "-", "Modell": "", "Status": "KVAR", "Plomberad": "JA" }, "geometry": { "type": "Point", "coordinates": [ 12.762481761055584, 56.308870600634592 ] } },
{ "type": "Feature", "properties": { "fid": 119, "Typ": "KSP IV", "Nr": "1512", "Tillgänglighet": null, "Bild": null, "Parkering": null, "Mindre kuriosa": null, "Modell": null, "Status": null, "Plomberad": null }, "geometry": { "type": "Point", "coordinates": [ 12.766054988761571, 56.304076129106541 ] } },
{ "type": "Feature", "properties": { "fid": 120, "Typ": "KSP IV", "Nr": "1511", "Tillgänglighet": null, "Bild": null, "Parkering": null, "Mindre kuriosa": null, "Modell": null, "Status": null, "Plomberad": null }, "geometry": { "type": "Point", "coordinates": [ 12.76864936733724, 56.30219709062245 ] } },
{ "type": "Feature", "properties": { "fid": 121, "Typ": "KSP IV", "Nr": "1509", "Tillgänglighet": null, "Bild": null, "Parkering": null, "Mindre kuriosa": null, "Modell": null, "Status": null, "Plomberad": null }, "geometry": { "type": "Point", "coordinates": [ 12.785490070372346, 56.298359257341637 ] } },
{ "type": "Feature", "properties": { "fid": 122, "Typ": "KSP IV", "Nr": "1508", "Tillgänglighet": null, "Bild": null, "Parkering": null, "Mindre kuriosa": null, "Modell": null, "Status": null, "Plomberad": null }, "geometry": { "type": "Point", "coordinates": [ 12.791545494546348, 56.294874791847789 ] } },
{ "type": "Feature", "properties": { "fid": 123, "Typ": "KSP IV", "Nr": "1506", "Tillgänglighet": null, "Bild": null, "Parkering": null, "Mindre kuriosa": null, "Modell": null, "Status": null, "Plomberad": null }, "geometry": { "type": "Point", "coordinates": [ 12.803478631978013, 56.291578675576126 ] } },
{ "type": "Feature", "properties": { "fid": 124, "Typ": "Observationvärn", "Nr": "1505", "Tillgänglighet": null, "Bild": null, "Parkering": null, "Mindre kuriosa": null, "Modell": null, "Status": null, "Plomberad": null }, "geometry": { "type": "Point", "coordinates": [ 12.808970455232073, 56.287498773371134 ] } },
{ "type": "Feature", "properties": { "fid": 125, "Typ": "KSP IV", "Nr": "1502", "Tillgänglighet": null, "Bild": null, "Parkering": null, "Mindre kuriosa": null, "Modell": null, "Status": null, "Plomberad": null }, "geometry": { "type": "Point", "coordinates": [ 12.822657276688799, 56.284888941715693 ] } },
{ "type": "Feature", "properties": { "fid": 126, "Typ": "KSP IV", "Nr": "1501", "Tillgänglighet": null, "Bild": null, "Parkering": null, "Mindre kuriosa": null, "Modell": null, "Status": null, "Plomberad": null }, "geometry": { "type": "Point", "coordinates": [ 12.829674684046287, 56.280997437044512 ] } },
{ "type": "Feature", "properties": { "fid": 127, "Typ": "KSP IV", "Nr": "1500", "Tillgänglighet": null, "Bild": null, "Parkering": null, "Mindre kuriosa": null, "Modell": null, "Status": null, "Plomberad": null }, "geometry": { "type": "Point", "coordinates": [ 12.831157423037446, 56.27686917252791 ] } },
{ "type": "Feature", "properties": { "fid": 128, "Typ": "KSP I", "Nr": "799", "Tillgänglighet": null, "Bild": null, "Parkering": null, "Mindre kuriosa": null, "Modell": null, "Status": null, "Plomberad": null }, "geometry": { "type": "Point", "coordinates": [ 12.837953566964927, 56.270226049486219 ] } },
{ "type": "Feature", "properties": { "fid": 129, "Typ": "PV", "Nr": "798", "Tillgänglighet": null, "Bild": null, "Parkering": null, "Mindre kuriosa": null, "Modell": null, "Status": null, "Plomberad": null }, "geometry": { "type": "Point", "coordinates": [ 12.83671486852154, 56.265432402975556 ] } },
{ "type": "Feature", "properties": { "fid": 130, "Typ": "KSP IV", "Nr": "797", "Tillgänglighet": null, "Bild": null, "Parkering": null, "Mindre kuriosa": null, "Modell": null, "Status": null, "Plomberad": null }, "geometry": { "type": "Point", "coordinates": [ 12.834326610655889, 56.260944769348249 ] } },
{ "type": "Feature", "properties": { "fid": 131, "Typ": "Observationsvärn", "Nr": "795", "Tillgänglighet": null, "Bild": null, "Parkering": null, "Mindre kuriosa": null, "Modell": null, "Status": "RIVET", "Plomberad": null }, "geometry": { "type": "Point", "coordinates": [ 12.831906755961404, 56.256790938742185 ] } },
{ "type": "Feature", "properties": { "fid": 132, "Typ": "KSP IV", "Nr": "794", "Tillgänglighet": null, "Bild": null, "Parkering": null, "Mindre kuriosa": null, "Modell": null, "Status": null, "Plomberad": null }, "geometry": { "type": "Point", "coordinates": [ 12.826731426598055, 56.250091166547897 ] } },
{ "type": "Feature", "properties": { "fid": 133, "Typ": "KSP IV", "Nr": "792", "Tillgänglighet": null, "Bild": null, "Parkering": null, "Mindre kuriosa": null, "Modell": null, "Status": "RIVET", "Plomberad": null }, "geometry": { "type": "Point", "coordinates": [ 12.814793027223459, 56.23676873165283 ] } },
{ "type": "Feature", "properties": { "fid": 134, "Typ": "KSP IV", "Nr": "790", "Tillgänglighet": null, "Bild": null, "Parkering": null, "Mindre kuriosa": null, "Modell": null, "Status": null, "Plomberad": null }, "geometry": { "type": "Point", "coordinates": [ 12.797262567139647, 56.225911379481715 ] } },
{ "type": "Feature", "properties": { "fid": 135, "Typ": "KSP IV", "Nr": "789", "Tillgänglighet": null, "Bild": null, "Parkering": null, "Mindre kuriosa": null, "Modell": null, "Status": null, "Plomberad": null }, "geometry": { "type": "Point", "coordinates": [ 12.760214514701392, 56.222382438996895 ] } },
{ "type": "Feature", "properties": { "fid": 136, "Typ": "KSP IV", "Nr": "787", "Tillgänglighet": null, "Bild": null, "Parkering": null, "Mindre kuriosa": null, "Modell": null, "Status": null, "Plomberad": null }, "geometry": { "type": "Point", "coordinates": [ 12.735506709721243, 56.229841199914162 ] } },
{ "type": "Feature", "properties": { "fid": 137, "Typ": "Observationsvärn", "Nr": "786", "Tillgänglighet": null, "Bild": null, "Parkering": null, "Mindre kuriosa": null, "Modell": null, "Status": "KVAR - Ägs av tomt innehavaren", "Plomberad": null }, "geometry": { "type": "Point", "coordinates": [ 12.72548099018104, 56.229283307075605 ] } },
{ "type": "Feature", "properties": { "fid": 138, "Typ": "KSP IV", "Nr": "785", "Tillgänglighet": null, "Bild": null, "Parkering": null, "Mindre kuriosa": null, "Modell": null, "Status": null, "Plomberad": null }, "geometry": { "type": "Point", "coordinates": [ 12.721054809105711, 56.230088968958448 ] } },
{ "type": "Feature", "properties": { "fid": 139, "Typ": "KSP IV", "Nr": "783", "Tillgänglighet": null, "Bild": null, "Parkering": null, "Mindre kuriosa": null, "Modell": null, "Status": null, "Plomberad": null }, "geometry": { "type": "Point", "coordinates": [ 12.687816510585359, 56.232464651188522 ] } },
{ "type": "Feature", "properties": { "fid": 140, "Typ": "KSP IV", "Nr": "782", "Tillgänglighet": null, "Bild": null, "Parkering": null, "Mindre kuriosa": null, "Modell": null, "Status": null, "Plomberad": null }, "geometry": { "type": "Point", "coordinates": [ 12.672405831654032, 56.240939355904388 ] } },
{ "type": "Feature", "properties": { "fid": 141, "Typ": "KSP IV", "Nr": "781", "Tillgänglighet": null, "Bild": null, "Parkering": null, "Mindre kuriosa": null, "Modell": null, "Status": null, "Plomberad": null }, "geometry": { "type": "Point", "coordinates": [ 12.664224516788467, 56.250558805590927 ] } },
{ "type": "Feature", "properties": { "fid": 142, "Typ": "KSP IV", "Nr": "780", "Tillgänglighet": null, "Bild": null, "Parkering": null, "Mindre kuriosa": null, "Modell": null, "Status": null, "Plomberad": null }, "geometry": { "type": "Point", "coordinates": [ 12.657280607914721, 56.255358774751315 ] } },
{ "type": "Feature", "properties": { "fid": 143, "Typ": "KSP IV", "Nr": "779", "Tillgänglighet": null, "Bild": null, "Parkering": null, "Mindre kuriosa": null, "Modell": null, "Status": null, "Plomberad": null }, "geometry": { "type": "Point", "coordinates": [ 12.639698128661383, 56.258103820690636 ] } },
{ "type": "Feature", "properties": { "fid": 144, "Typ": "KSP IV", "Nr": "778", "Tillgänglighet": null, "Bild": null, "Parkering": null, "Mindre kuriosa": null, "Modell": null, "Status": null, "Plomberad": null }, "geometry": { "type": "Point", "coordinates": [ 12.631431415659325, 56.260985907042667 ] } },
{ "type": "Feature", "properties": { "fid": 145, "Typ": "KSP IV", "Nr": "777", "Tillgänglighet": null, "Bild": null, "Parkering": null, "Mindre kuriosa": null, "Modell": null, "Status": null, "Plomberad": null }, "geometry": { "type": "Point", "coordinates": [ 12.621713078835928, 56.26201123857895 ] } },
{ "type": "Feature", "properties": { "fid": 146, "Typ": "KSP III", "Nr": "776", "Tillgänglighet": null, "Bild": null, "Parkering": null, "Mindre kuriosa": null, "Modell": null, "Status": null, "Plomberad": null }, "geometry": { "type": "Point", "coordinates": [ 12.605681926811803, 56.266141820087682 ] } },
{ "type": "Feature", "properties": { "fid": 147, "Typ": "KSP III", "Nr": "775", "Tillgänglighet": null, "Bild": null, "Parkering": null, "Mindre kuriosa": null, "Modell": null, "Status": null, "Plomberad": null }, "geometry": { "type": "Point", "coordinates": [ 12.597232857721499, 56.269498471857915 ] } },
{ "type": "Feature", "properties": { "fid": 148, "Typ": "Observationsvärn", "Nr": "774", "Tillgänglighet": null, "Bild": null, "Parkering": null, "Mindre kuriosa": null, "Modell": null, "Status": null, "Plomberad": null }, "geometry": { "type": "Point", "coordinates": [ 12.587911022567001, 56.270919616048772 ] } },
{ "type": "Feature", "properties": { "fid": 149, "Typ": "PV", "Nr": "773a", "Tillgänglighet": null, "Bild": null, "Parkering": null, "Mindre kuriosa": null, "Modell": null, "Status": null, "Plomberad": null }, "geometry": { "type": "Point", "coordinates": [ 12.578955055570539, 56.273850318522271 ] } },
{ "type": "Feature", "properties": { "fid": 150, "Typ": "KSP III", "Nr": "773", "Tillgänglighet": "Väldigt lätt", "Bild": "Pictures/varn773.jpg", "Parkering": "Inom 50m", "Mindre kuriosa": "-", "Modell": "", "Status": "KVAR", "Plomberad": "JA" }, "geometry": { "type": "Point", "coordinates": [ 12.57830134800855, 56.274077525235114 ] } },
{ "type": "Feature", "properties": { "fid": 151, "Typ": "PV", "Nr": "772a", "Tillgänglighet": null, "Bild": null, "Parkering": null, "Mindre kuriosa": null, "Modell": null, "Status": null, "Plomberad": null }, "geometry": { "type": "Point", "coordinates": [ 12.571666953192606, 56.27633736429361 ] } },
{ "type": "Feature", "properties": { "fid": 152, "Typ": "KSP III", "Nr": "772", "Tillgänglighet": null, "Bild": null, "Parkering": null, "Mindre kuriosa": null, "Modell": null, "Status": null, "Plomberad": null }, "geometry": { "type": "Point", "coordinates": [ 12.570720854549343, 56.277414949673194 ] } },
{ "type": "Feature", "properties": { "fid": 153, "Typ": "PV", "Nr": "771a", "Tillgänglighet": null, "Bild": null, "Parkering": null, "Mindre kuriosa": null, "Modell": null, "Status": null, "Plomberad": null }, "geometry": { "type": "Point", "coordinates": [ 12.559153741996084, 56.280914275499377 ] } },
{ "type": "Feature", "properties": { "fid": 154, "Typ": "KSP III", "Nr": "771", "Tillgänglighet": null, "Bild": null, "Parkering": null, "Mindre kuriosa": null, "Modell": null, "Status": null, "Plomberad": null }, "geometry": { "type": "Point", "coordinates": [ 12.555946760203261, 56.281483147395377 ] } },
{ "type": "Feature", "properties": { "fid": 155, "Typ": "Observationsvärn", "Nr": "686", "Tillgänglighet": "Lätt, Promenadstråk Råå, Skåneleden", "Bild": null, "Parkering": "Inom 300m", "Mindre kuriosa": "-", "Modell": "-", "Status": "RIVET", "Plomberad": "JA" }, "geometry": { "type": "Point", "coordinates": [ 12.722678088428845, 56.004331279159047 ] } },
{ "type": "Feature", "properties": { "fid": 156, "Typ": "KSP V", "Nr": "1734", "Tillgänglighet": "Lätt, nära väg, anslutning till Skåneleden", "Bild": null, "Parkering": "Inom 400m", "Mindre kuriosa": "-", "Modell": "-", "Status": "KVAR", "Plomberad": "JA" }, "geometry": { "type": "Point", "coordinates": [ 12.726449571346594, 56.005588640583888 ] } },
{ "type": "Feature", "properties": { "fid": 157, "Typ": "PV", "Nr": "668", "Tillgänglighet": "Lätt, om man har tillgång till att gå in i golfbanan", "Bild": null, "Parkering": "Inom ca 500m", "Mindre kuriosa": "-", "Modell": "-", "Status": "KVAR", "Plomberad": "JA" }, "geometry": { "type": "Point", "coordinates": [ 12.756072892615942, 55.9802546458846 ] } },
{ "type": "Feature", "properties": { "fid": 158, "Typ": "Mätstation", "Nr": "8 Kockenhus", "Tillgänglighet": "-", "Bild": "-", "Parkering": "-", "Mindre kuriosa": "-", "Modell": "-", "Status": "-", "Plomberad": "-" }, "geometry": { "type": "Point", "coordinates": [ 12.521023465246651, 56.277190874399977 ] } },
{ "type": "Feature", "properties": { "fid": 159, "Typ": "Mätstation", "Nr": "9 Tedolit- observationsvärnplats ", "Tillgänglighet": "-", "Bild": "-", "Parkering": "-", "Mindre kuriosa": "-", "Modell": "-", "Status": "-", "Plomberad": "-" }, "geometry": { "type": "Point", "coordinates": [ 12.513515140367558, 56.27964098759039 ] } },
{ "type": "Feature", "properties": { "fid": 160, "Typ": "KSP III", "Nr": "770", "Tillgänglighet": "Lätt", "Bild": "-", "Parkering": "Ca 300m ifrån", "Mindre kuriosa": "-", "Modell": "-", "Status": "-", "Plomberad": "-" }, "geometry": { "type": "Point", "coordinates": [ 12.487228794529894, 56.28770168584748 ] } },
{ "type": "Feature", "properties": { "fid": 161, "Typ": "Provisoriskt värn", "Nr": "-", "Tillgänglighet": "Lätt", "Bild": "-", "Parkering": "Inom 50m", "Mindre kuriosa": "Strandspensionatet", "Modell": "-", "Status": "RIVET", "Plomberad": "-" }, "geometry": { "type": "Point", "coordinates": [ 12.4910738674531, 56.285415474554718 ] } },
{ "type": "Feature", "properties": { "fid": 162, "Typ": "Observationsvärn", "Nr": "769", "Tillgänglighet": "-", "Bild": "-", "Parkering": "-", "Mindre kuriosa": "-", "Modell": "-", "Status": "-", "Plomberad": "-" }, "geometry": { "type": "Point", "coordinates": [ 12.492604527666881, 56.285500834827523 ] } },
{ "type": "Feature", "properties": { "fid": 163, "Typ": "KSP I", "Nr": "768", "Tillgänglighet": "-", "Bild": "-", "Parkering": "-", "Mindre kuriosa": "-", "Modell": "-", "Status": "-", "Plomberad": "-" }, "geometry": { "type": "Point", "coordinates": [ 12.49460356710267, 56.283587906043046 ] } },
{ "type": "Feature", "properties": { "fid": 164, "Typ": "Kanon Värn", "Nr": "767", "Tillgänglighet": "-", "Bild": "-", "Parkering": "-", "Mindre kuriosa": "-", "Modell": "-", "Status": "RIVET", "Plomberad": "-" }, "geometry": { "type": "Point", "coordinates": [ 12.495888963532702, 56.280096709116116 ] } },
{ "type": "Feature", "properties": { "fid": 165, "Typ": "KSPIII", "Nr": "766", "Tillgänglighet": "-", "Bild": "-", "Parkering": "-", "Mindre kuriosa": "-", "Modell": "-", "Status": "KVAR", "Plomberad": "-" }, "geometry": { "type": "Point", "coordinates": [ 12.50296756235552, 56.27313864493069 ] } },
{ "type": "Feature", "properties": { "fid": 166, "Typ": "Provosoriskt", "Nr": "-", "Tillgänglighet": "-", "Bild": "-", "Parkering": "-", "Mindre kuriosa": "Vattenmöllan", "Modell": "-", "Status": "KVAR", "Plomberad": "-" }, "geometry": { "type": "Point", "coordinates": [ 12.504131895466623, 56.270717858762595 ] } },
{ "type": "Feature", "properties": { "fid": 167, "Typ": "Provisoriskt", "Nr": "-", "Tillgänglighet": "-", "Bild": "-", "Parkering": "-", "Mindre kuriosa": "Vattenmöllan", "Modell": "-", "Status": "-", "Plomberad": "-" }, "geometry": { "type": "Point", "coordinates": [ 12.505716724368833, 56.269667567530782 ] } },
{ "type": "Feature", "properties": { "fid": 168, "Typ": "KSPIII", "Nr": "765", "Tillgänglighet": "-", "Bild": "-", "Parkering": "-", "Mindre kuriosa": "-", "Modell": "-", "Status": "-", "Plomberad": "-" }, "geometry": { "type": "Point", "coordinates": [ 12.507904972321457, 56.268897743063917 ] } },
{ "type": "Feature", "properties": { "fid": 169, "Typ": "PV", "Nr": "765a", "Tillgänglighet": "-", "Bild": "-", "Parkering": "-", "Mindre kuriosa": "-", "Modell": "-", "Status": "-", "Plomberad": "-" }, "geometry": { "type": "Point", "coordinates": [ 12.509202892543097, 56.268840843296061 ] } },
{ "type": "Feature", "properties": { "fid": 170, "Typ": "Provisorisk", "Nr": "-", "Tillgänglighet": "-", "Bild": "-", "Parkering": "-", "Mindre kuriosa": "-", "Modell": "-", "Status": "-", "Plomberad": "-" }, "geometry": { "type": "Point", "coordinates": [ 12.508829455847753, 56.26771421046594 ] } },
{ "type": "Feature", "properties": { "fid": 171, "Typ": "Provisoriskt", "Nr": "-", "Tillgänglighet": "-", "Bild": "-", "Parkering": "-", "Mindre kuriosa": "-", "Modell": "-", "Status": "-", "Plomberad": "-" }, "geometry": { "type": "Point", "coordinates": [ 12.509053745570261, 56.265810808418799 ] } },
{ "type": "Feature", "properties": { "fid": 172, "Typ": "Provisoriskt", "Nr": "-", "Tillgänglighet": "-", "Bild": "-", "Parkering": "-", "Mindre kuriosa": "-", "Modell": "-", "Status": "-", "Plomberad": "-" }, "geometry": { "type": "Point", "coordinates": [ 12.511933648377832, 56.26409194331044 ] } },
{ "type": "Feature", "properties": { "fid": 173, "Typ": "Provisoriskt", "Nr": "-", "Tillgänglighet": "-", "Bild": "-", "Parkering": "-", "Mindre kuriosa": "-", "Modell": "-", "Status": "-", "Plomberad": "-" }, "geometry": { "type": "Point", "coordinates": [ 12.512860408957145, 56.262929760852742 ] } },
{ "type": "Feature", "properties": { "fid": 174, "Typ": "Provisoriskt", "Nr": "-", "Tillgänglighet": "-", "Bild": "-", "Parkering": "-", "Mindre kuriosa": "-", "Modell": "-", "Status": "-", "Plomberad": "-" }, "geometry": { "type": "Point", "coordinates": [ 12.513701780048192, 56.262055887681967 ] } },
{ "type": "Feature", "properties": { "fid": 175, "Typ": "Provisoriskt", "Nr": "-", "Tillgänglighet": "-", "Bild": "-", "Parkering": "-", "Mindre kuriosa": "-", "Modell": "-", "Status": "-", "Plomberad": "-" }, "geometry": { "type": "Point", "coordinates": [ 12.516334432848639, 56.260905236491901 ] } },
{ "type": "Feature", "properties": { "fid": 176, "Typ": "KSPIV", "Nr": "764", "Tillgänglighet": "-", "Bild": "-", "Parkering": "-", "Mindre kuriosa": "-", "Modell": "-", "Status": "RIVET", "Plomberad": "-" }, "geometry": { "type": "Point", "coordinates": [ 12.518862467712516, 56.259281745615901 ] } },
{ "type": "Feature", "properties": { "fid": 177, "Typ": "Eldställning", "Nr": "-", "Tillgänglighet": "-", "Bild": "-", "Parkering": "-", "Mindre kuriosa": "-", "Modell": "-", "Status": "-", "Plomberad": "-" }, "geometry": { "type": "Point", "coordinates": [ 12.518917116985003, 56.255114006649769 ] } },
{ "type": "Feature", "properties": { "fid": 178, "Typ": "Eldställning", "Nr": "-", "Tillgänglighet": "-", "Bild": "-", "Parkering": "-", "Mindre kuriosa": "-", "Modell": "-", "Status": "-", "Plomberad": "-" }, "geometry": { "type": "Point", "coordinates": [ 12.524711289233831, 56.25231464727824 ] } },
{ "type": "Feature", "properties": { "fid": 179, "Typ": "PV", "Nr": "763", "Tillgänglighet": "-", "Bild": "-", "Parkering": "-", "Mindre kuriosa": "-", "Modell": "-", "Status": "-", "Plomberad": "-" }, "geometry": { "type": "Point", "coordinates": [ 12.524835430791093, 56.251941333918822 ] } },
{ "type": "Feature", "properties": { "fid": 180, "Typ": "Eldställning", "Nr": "-", "Tillgänglighet": "-", "Bild": "-", "Parkering": "-", "Mindre kuriosa": "-", "Modell": "-", "Status": "-", "Plomberad": "-" }, "geometry": { "type": "Point", "coordinates": [ 12.524626729042652, 56.251793156991091 ] } },
{ "type": "Feature", "properties": { "fid": 181, "Typ": "Eldställning", "Nr": "-", "Tillgänglighet": "-", "Bild": "-", "Parkering": "-", "Mindre kuriosa": "-", "Modell": "-", "Status": "-", "Plomberad": "-" }, "geometry": { "type": "Point", "coordinates": [ 12.525045931692542, 56.251759173668816 ] } },
{ "type": "Feature", "properties": { "fid": 182, "Typ": "Observationsvärn", "Nr": "762", "Tillgänglighet": "-", "Bild": "-", "Parkering": "-", "Mindre kuriosa": "-", "Modell": "-", "Status": "-", "Plomberad": "-" }, "geometry": { "type": "Point", "coordinates": [ 12.525531703003574, 56.251353370489348 ] } },
{ "type": "Feature", "properties": { "fid": 183, "Typ": "Eldställning", "Nr": "-", "Tillgänglighet": "-", "Bild": "-", "Parkering": "-", "Mindre kuriosa": "-", "Modell": "-", "Status": "-", "Plomberad": "-" }, "geometry": { "type": "Point", "coordinates": [ 12.525672036937875, 56.251581260489154 ] } },
{ "type": "Feature", "properties": { "fid": 184, "Typ": "Eldställning", "Nr": "-", "Tillgänglighet": "-", "Bild": "-", "Parkering": "-", "Mindre kuriosa": "-", "Modell": "-", "Status": "-", "Plomberad": "-" }, "geometry": { "type": "Point", "coordinates": [ 12.525880738686324, 56.251472313246218 ] } },
{ "type": "Feature", "properties": { "fid": 185, "Typ": "KSPIII", "Nr": "761", "Tillgänglighet": "-", "Bild": "-", "Parkering": "-", "Mindre kuriosa": "-", "Modell": "-", "Status": "-", "Plomberad": "-" }, "geometry": { "type": "Point", "coordinates": [ 12.526445672729535, 56.250644703882813 ] } },
{ "type": "Feature", "properties": { "fid": 186, "Typ": "Eldställning", "Nr": "-", "Tillgänglighet": "-", "Bild": "-", "Parkering": "-", "Mindre kuriosa": "-", "Modell": "-", "Status": "-", "Plomberad": "-" }, "geometry": { "type": "Point", "coordinates": [ 12.526451070188548, 56.250873597634325 ] } },
{ "type": "Feature", "properties": { "fid": 187, "Typ": "Eldställning", "Nr": "-", "Tillgänglighet": "-", "Bild": "-", "Parkering": "-", "Mindre kuriosa": "-", "Modell": "-", "Status": "-", "Plomberad": "-" }, "geometry": { "type": "Point", "coordinates": [ 12.526276552347175, 56.250704676177101 ] } },
{ "type": "Feature", "properties": { "fid": 188, "Typ": "KSPIII", "Nr": "-", "Tillgänglighet": "-", "Bild": "-", "Parkering": "-", "Mindre kuriosa": "-", "Modell": "-", "Status": "RIVET", "Plomberad": "-" }, "geometry": { "type": "Point", "coordinates": [ 12.531584053708551, 56.244718978009601 ] } },
{ "type": "Feature", "properties": { "fid": 189, "Typ": "KSPIII", "Nr": "759", "Tillgänglighet": "-", "Bild": "-", "Parkering": "-", "Mindre kuriosa": "-", "Modell": "-", "Status": "-", "Plomberad": "-" }, "geometry": { "type": "Point", "coordinates": [ 12.535614156437198, 56.236592605198219 ] } },
{ "type": "Feature", "properties": { "fid": 190, "Typ": "PV", "Nr": "758", "Tillgänglighet": "-", "Bild": "-", "Parkering": "-", "Mindre kuriosa": "-", "Modell": "-", "Status": "-", "Plomberad": "-" }, "geometry": { "type": "Point", "coordinates": [ 12.535000195474622, 56.230582449409461 ] } },
{ "type": "Feature", "properties": { "fid": 191, "Typ": "Eldställning", "Nr": null, "Tillgänglighet": null, "Bild": null, "Parkering": null, "Mindre kuriosa": null, "Modell": null, "Status": null, "Plomberad": null }, "geometry": { "type": "Point", "coordinates": [ 12.535174263527743, 56.230526945885487 ] } },
{ "type": "Feature", "properties": { "fid": 192, "Typ": "KSPIII", "Nr": "757", "Tillgänglighet": null, "Bild": null, "Parkering": null, "Mindre kuriosa": null, "Modell": null, "Status": null, "Plomberad": null }, "geometry": { "type": "Point", "coordinates": [ 12.539705280438545, 56.225884199818033 ] } },
{ "type": "Feature", "properties": { "fid": 193, "Typ": "Eldställning", "Nr": null, "Tillgänglighet": null, "Bild": null, "Parkering": null, "Mindre kuriosa": null, "Modell": null, "Status": null, "Plomberad": null }, "geometry": { "type": "Point", "coordinates": [ 12.540000341531174, 56.225896202041049 ] } },
{ "type": "Feature", "properties": { "fid": 194, "Typ": "KSPIV", "Nr": "756", "Tillgänglighet": null, "Bild": null, "Parkering": null, "Mindre kuriosa": null, "Modell": null, "Status": null, "Plomberad": null }, "geometry": { "type": "Point", "coordinates": [ 12.540929903916473, 56.222405730497073 ] } },
{ "type": "Feature", "properties": { "fid": 195, "Typ": "KSPIII", "Nr": "755", "Tillgänglighet": null, "Bild": null, "Parkering": null, "Mindre kuriosa": null, "Modell": null, "Status": null, "Plomberad": null }, "geometry": { "type": "Point", "coordinates": [ 12.543905702984793, 56.215214403715983 ] } },
{ "type": "Feature", "properties": { "fid": 196, "Typ": "PV", "Nr": "754", "Tillgänglighet": null, "Bild": null, "Parkering": null, "Mindre kuriosa": null, "Modell": null, "Status": null, "Plomberad": null }, "geometry": { "type": "Point", "coordinates": [ 12.540676823060604, 56.207720196751225 ] } },
{ "type": "Feature", "properties": { "fid": 197, "Typ": "KSPIII", "Nr": "753", "Tillgänglighet": null, "Bild": null, "Parkering": null, "Mindre kuriosa": null, "Modell": null, "Status": "RIVET", "Plomberad": null }, "geometry": { "type": "Point", "coordinates": [ 12.544204362383418, 56.20425909300991 ] } },
{ "type": "Feature", "properties": { "fid": 198, "Typ": "Observationsvärn", "Nr": "752", "Tillgänglighet": null, "Bild": null, "Parkering": "", "Mindre kuriosa": null, "Modell": null, "Status": null, "Plomberad": null }, "geometry": { "type": "Point", "coordinates": [ 12.543475705416865, 56.200196834487144 ] } },
{ "type": "Feature", "properties": { "fid": 199, "Typ": "KG-I", "Nr": "1876", "Tillgänglighet": null, "Bild": null, "Parkering": null, "Mindre kuriosa": "Ombyggt pjäsvärn", "Modell": null, "Status": null, "Plomberad": null }, "geometry": { "type": "Point", "coordinates": [ 12.544481431945997, 56.200661228763011 ] } },
{ "type": "Feature", "properties": { "fid": 200, "Typ": "Skyddsrum", "Nr": "HN-1", "Tillgänglighet": null, "Bild": null, "Parkering": null, "Mindre kuriosa": null, "Modell": null, "Status": "RIVET", "Plomberad": null }, "geometry": { "type": "Point", "coordinates": [ 12.545638287327455, 56.200991505753265 ] } },
{ "type": "Feature", "properties": { "fid": 201, "Typ": "Skyddsrum", "Nr": "SK-1875", "Tillgänglighet": null, "Bild": null, "Parkering": null, "Mindre kuriosa": null, "Modell": null, "Status": "RIVET", "Plomberad": null }, "geometry": { "type": "Point", "coordinates": [ 12.547442837790282, 56.199731433720608 ] } },
{ "type": "Feature", "properties": { "fid": 202, "Typ": "KANON", "Nr": "751", "Tillgänglighet": null, "Bild": null, "Parkering": null, "Mindre kuriosa": null, "Modell": null, "Status": null, "Plomberad": null }, "geometry": { "type": "Point", "coordinates": [ 12.553958470393606, 56.198027418210707 ] } },
{ "type": "Feature", "properties": { "fid": 203, "Typ": "KSP-I", "Nr": "750", "Tillgänglighet": null, "Bild": null, "Parkering": null, "Mindre kuriosa": null, "Modell": null, "Status": null, "Plomberad": null }, "geometry": { "type": "Point", "coordinates": [ 12.554728507879249, 56.196930402534853 ] } },
{ "type": "Feature", "properties": { "fid": 204, "Typ": "KSP-III", "Nr": "749", "Tillgänglighet": null, "Bild": null, "Parkering": null, "Mindre kuriosa": null, "Modell": null, "Status": null, "Plomberad": null }, "geometry": { "type": "Point", "coordinates": [ 12.553712586149754, 56.192398541205328 ] } },
{ "type": "Feature", "properties": { "fid": 205, "Typ": "PV", "Nr": "747a", "Tillgänglighet": null, "Bild": null, "Parkering": null, "Mindre kuriosa": null, "Modell": null, "Status": "RIVET", "Plomberad": null }, "geometry": { "type": "Point", "coordinates": [ 12.557099791538276, 56.184582809234776 ] } },
{ "type": "Feature", "properties": { "fid": 206, "Typ": "KSP-III", "Nr": "748", "Tillgänglighet": null, "Bild": null, "Parkering": null, "Mindre kuriosa": null, "Modell": null, "Status": null, "Plomberad": null }, "geometry": { "type": "Point", "coordinates": [ 12.556666555494962, 56.182007473919448 ] } },
{ "type": "Feature", "properties": { "fid": 207, "Typ": "PV", "Nr": "747", "Tillgänglighet": null, "Bild": null, "Parkering": null, "Mindre kuriosa": null, "Modell": null, "Status": null, "Plomberad": null }, "geometry": { "type": "Point", "coordinates": [ 12.556341268631861, 56.181210139639681 ] } },
{ "type": "Feature", "properties": { "fid": 208, "Typ": "Observationsvärn", "Nr": "746", "Tillgänglighet": null, "Bild": null, "Parkering": null, "Mindre kuriosa": null, "Modell": null, "Status": null, "Plomberad": null }, "geometry": { "type": "Point", "coordinates": [ 12.557803620193367, 56.174017539185073 ] } },
{ "type": "Feature", "properties": { "fid": 209, "Typ": "KSP-III", "Nr": "745", "Tillgänglighet": null, "Bild": null, "Parkering": null, "Mindre kuriosa": null, "Modell": null, "Status": null, "Plomberad": null }, "geometry": { "type": "Point", "coordinates": [ 12.563887156216918, 56.168424182999345 ] } },
{ "type": "Feature", "properties": { "fid": 210, "Typ": "KSP-IV", "Nr": "744", "Tillgänglighet": null, "Bild": null, "Parkering": null, "Mindre kuriosa": null, "Modell": null, "Status": null, "Plomberad": null }, "geometry": { "type": "Point", "coordinates": [ 12.564721963210694, 56.16126026718068 ] } },
{ "type": "Feature", "properties": { "fid": 211, "Typ": "PV", "Nr": "743a", "Tillgänglighet": null, "Bild": null, "Parkering": null, "Mindre kuriosa": null, "Modell": null, "Status": null, "Plomberad": null }, "geometry": { "type": "Point", "coordinates": [ 12.564745472143267, 56.156543166233092 ] } },
{ "type": "Feature", "properties": { "fid": 212, "Typ": "PV", "Nr": "743", "Tillgänglighet": null, "Bild": null, "Parkering": null, "Mindre kuriosa": null, "Modell": null, "Status": null, "Plomberad": null }, "geometry": { "type": "Point", "coordinates": [ 12.565426751414059, 56.15530655140072 ] } },
{ "type": "Feature", "properties": { "fid": 213, "Typ": "Eldställning", "Nr": null, "Tillgänglighet": null, "Bild": null, "Parkering": null, "Mindre kuriosa": null, "Modell": null, "Status": null, "Plomberad": null }, "geometry": { "type": "Point", "coordinates": [ 12.56570885860506, 56.155258454081931 ] } },
{ "type": "Feature", "properties": { "fid": 214, "Typ": "KSP-III", "Nr": "742", "Tillgänglighet": null, "Bild": null, "Parkering": null, "Mindre kuriosa": null, "Modell": null, "Status": null, "Plomberad": null }, "geometry": { "type": "Point", "coordinates": [ 12.567612602370183, 56.153054463460109 ] } },
{ "type": "Feature", "properties": { "fid": 215, "Typ": "KSP-VII", "Nr": "1879", "Tillgänglighet": null, "Bild": null, "Parkering": null, "Mindre kuriosa": null, "Modell": null, "Status": "RIVET", "Plomberad": null }, "geometry": { "type": "Point", "coordinates": [ 12.569854107125892, 56.151036343713805 ] } },
{ "type": "Feature", "properties": { "fid": 216, "Typ": "KG-I", "Nr": "1874", "Tillgänglighet": null, "Bild": null, "Parkering": null, "Mindre kuriosa": null, "Modell": null, "Status": null, "Plomberad": null }, "geometry": { "type": "Point", "coordinates": [ 12.570909610221475, 56.152557425796751 ] } },
{ "type": "Feature", "properties": { "fid": 217, "Typ": "KSP-IV", "Nr": "1873", "Tillgänglighet": null, "Bild": null, "Parkering": null, "Mindre kuriosa": null, "Modell": null, "Status": null, "Plomberad": null }, "geometry": { "type": "Point", "coordinates": [ 12.574273786451577, 56.153149594666885 ] } },
{ "type": "Feature", "properties": { "fid": 218, "Typ": "Skyddsrum", "Nr": "SK-112", "Tillgänglighet": null, "Bild": null, "Parkering": null, "Mindre kuriosa": null, "Modell": null, "Status": "RIVET", "Plomberad": null }, "geometry": { "type": "Point", "coordinates": [ 12.583757961539511, 56.153998282875015 ] } },
{ "type": "Feature", "properties": { "fid": 219, "Typ": "Skyddsrum", "Nr": "SK-111", "Tillgänglighet": null, "Bild": null, "Parkering": null, "Mindre kuriosa": null, "Modell": null, "Status": null, "Plomberad": null }, "geometry": { "type": "Point", "coordinates": [ 12.595555287653893, 56.151777117140618 ] } },
{ "type": "Feature", "properties": { "fid": 220, "Typ": "KSP-IV", "Nr": "1869", "Tillgänglighet": null, "Bild": null, "Parkering": null, "Mindre kuriosa": null, "Modell": null, "Status": "RIVET", "Plomberad": null }, "geometry": { "type": "Point", "coordinates": [ 12.579257040460371, 56.150138773708406 ] } },
{ "type": "Feature", "properties": { "fid": 221, "Typ": "KSP-IV", "Nr": "1868", "Tillgänglighet": null, "Bild": null, "Parkering": null, "Mindre kuriosa": null, "Modell": null, "Status": "RIVET", "Plomberad": null }, "geometry": { "type": "Point", "coordinates": [ 12.584198074345439, 56.147367897369108 ] } },
{ "type": "Feature", "properties": { "fid": 222, "Typ": "Skyddsrum", "Nr": "SK-110", "Tillgänglighet": null, "Bild": null, "Parkering": null, "Mindre kuriosa": null, "Modell": null, "Status": null, "Plomberad": null }, "geometry": { "type": "Point", "coordinates": [ 12.592753833175243, 56.146466559311783 ] } },
{ "type": "Feature", "properties": { "fid": 223, "Typ": "KSP-IV", "Nr": "1867", "Tillgänglighet": null, "Bild": null, "Parkering": null, "Mindre kuriosa": null, "Modell": null, "Status": "RIVET", "Plomberad": null }, "geometry": { "type": "Point", "coordinates": [ 12.588530114929267, 56.144409129678628 ] } },
{ "type": "Feature", "properties": { "fid": 224, "Typ": "KSP-III", "Nr": "738", "Tillgänglighet": null, "Bild": null, "Parkering": null, "Mindre kuriosa": null, "Modell": null, "Status": null, "Plomberad": null }, "geometry": { "type": "Point", "coordinates": [ 12.581863600024064, 56.142335433272905 ] } },
{ "type": "Feature", "properties": { "fid": 225, "Typ": "KSP-IV", "Nr": "740", "Tillgänglighet": null, "Bild": null, "Parkering": null, "Mindre kuriosa": null, "Modell": null, "Status": null, "Plomberad": null }, "geometry": { "type": "Point", "coordinates": [ 12.570519607158246, 56.143293415084926 ] } },
{ "type": "Feature", "properties": { "fid": 226, "Typ": "Observationsvärn", "Nr": "741", "Tillgänglighet": null, "Bild": null, "Parkering": null, "Mindre kuriosa": null, "Modell": null, "Status": null, "Plomberad": null }, "geometry": { "type": "Point", "coordinates": [ 12.569397148916782, 56.144036594846746 ] } },
{ "type": "Feature", "properties": { "fid": 227, "Typ": "KANON", "Nr": "739", "Tillgänglighet": null, "Bild": null, "Parkering": null, "Mindre kuriosa": null, "Modell": null, "Status": null, "Plomberad": null }, "geometry": { "type": "Point", "coordinates": [ 12.586598224414876, 56.139078781854188 ] } },
{ "type": "Feature", "properties": { "fid": 228, "Typ": "PV", "Nr": "738a", "Tillgänglighet": null, "Bild": null, "Parkering": null, "Mindre kuriosa": null, "Modell": null, "Status": null, "Plomberad": null }, "geometry": { "type": "Point", "coordinates": [ 12.587378657006777, 56.137809881940861 ] } },
{ "type": "Feature", "properties": { "fid": 229, "Typ": "Skyddsrum", "Nr": "SK-108", "Tillgänglighet": null, "Bild": null, "Parkering": null, "Mindre kuriosa": null, "Modell": null, "Status": "RIVET", "Plomberad": null }, "geometry": { "type": "Point", "coordinates": [ 12.605045717575285, 56.137352053838292 ] } },
{ "type": "Feature", "properties": { "fid": 230, "Typ": "KSP-III", "Nr": "737", "Tillgänglighet": null, "Bild": null, "Parkering": null, "Mindre kuriosa": null, "Modell": null, "Status": null, "Plomberad": null }, "geometry": { "type": "Point", "coordinates": [ 12.58893099287263, 56.134659893193302 ] } },
{ "type": "Feature", "properties": { "fid": 231, "Typ": "KSP-IV", "Nr": "1862", "Tillgänglighet": null, "Bild": null, "Parkering": null, "Mindre kuriosa": null, "Modell": null, "Status": null, "Plomberad": null }, "geometry": { "type": "Point", "coordinates": [ 12.592812780239241, 56.133780185527328 ] } },
{ "type": "Feature", "properties": { "fid": 232, "Typ": "KSP-V", "Nr": "1861", "Tillgänglighet": null, "Bild": null, "Parkering": null, "Mindre kuriosa": null, "Modell": null, "Status": null, "Plomberad": null }, "geometry": { "type": "Point", "coordinates": [ 12.597275263227521, 56.128502768861701 ] } },
{ "type": "Feature", "properties": { "fid": 233, "Typ": "PV", "Nr": "736", "Tillgänglighet": null, "Bild": null, "Parkering": null, "Mindre kuriosa": null, "Modell": null, "Status": null, "Plomberad": null }, "geometry": { "type": "Point", "coordinates": [ 12.594956973550227, 56.127631371483076 ] } },
{ "type": "Feature", "properties": { "fid": 234, "Typ": "Skyddsrum", "Nr": "SK-106", "Tillgänglighet": null, "Bild": null, "Parkering": null, "Mindre kuriosa": null, "Modell": null, "Status": null, "Plomberad": null }, "geometry": { "type": "Point", "coordinates": [ 12.60947998010419, 56.127194413353912 ] } },
{ "type": "Feature", "properties": { "fid": 235, "Typ": "KSP-IV", "Nr": "1860", "Tillgänglighet": null, "Bild": null, "Parkering": null, "Mindre kuriosa": null, "Modell": null, "Status": null, "Plomberad": null }, "geometry": { "type": "Point", "coordinates": [ 12.601698434133114, 56.125234509522812 ] } },
{ "type": "Feature", "properties": { "fid": 236, "Typ": "KSP-III", "Nr": "735", "Tillgänglighet": null, "Bild": null, "Parkering": null, "Mindre kuriosa": null, "Modell": null, "Status": null, "Plomberad": null }, "geometry": { "type": "Point", "coordinates": [ 12.599997156953906, 56.121647215063746 ] } },
{ "type": "Feature", "properties": { "fid": 237, "Typ": "KSP-IV", "Nr": "1859", "Tillgänglighet": null, "Bild": null, "Parkering": null, "Mindre kuriosa": null, "Modell": null, "Status": null, "Plomberad": null }, "geometry": { "type": "Point", "coordinates": [ 12.607041882174855, 56.121742197902613 ] } },
{ "type": "Feature", "properties": { "fid": 238, "Typ": "Skyddsrum", "Nr": "SK-105?", "Tillgänglighet": null, "Bild": null, "Parkering": null, "Mindre kuriosa": "Osäker 105", "Modell": null, "Status": null, "Plomberad": null }, "geometry": { "type": "Point", "coordinates": [ 12.611035490576754, 56.121644246846259 ] } },
{ "type": "Feature", "properties": { "fid": 239, "Typ": "Kustartelleri", "Nr": "Pjäs 2 Sonja", "Tillgänglighet": null, "Bild": null, "Parkering": null, "Mindre kuriosa": "Namnet är döpt efter tjejer i trakten", "Modell": null, "Status": null, "Plomberad": null }, "geometry": { "type": "Point", "coordinates": [ 12.636371533924134, 56.130291012008513 ] } },
{ "type": "Feature", "properties": { "fid": 240, "Typ": "KSP", "Nr": "Värn 3", "Tillgänglighet": null, "Bild": null, "Parkering": null, "Mindre kuriosa": null, "Modell": null, "Status": null, "Plomberad": null }, "geometry": { "type": "Point", "coordinates": [ 12.635462766145571, 56.131831469547407 ] } },
{ "type": "Feature", "properties": { "fid": 241, "Typ": "KSP", "Nr": "Värn 3", "Tillgänglighet": null, "Bild": null, "Parkering": null, "Mindre kuriosa": null, "Modell": null, "Status": null, "Plomberad": null }, "geometry": { "type": "Point", "coordinates": [ 12.640148600003778, 56.131973905997704 ] } },
{ "type": "Feature", "properties": { "fid": 242, "Typ": "Kustartelleri", "Nr": "Pjäs 4 Maja", "Tillgänglighet": null, "Bild": null, "Parkering": null, "Mindre kuriosa": "Döpt efter tjej i trakten", "Modell": null, "Status": null, "Plomberad": null }, "geometry": { "type": "Point", "coordinates": [ 12.641066834113364, 56.130612825017998 ] } },
{ "type": "Feature", "properties": { "fid": 243, "Typ": "KSP", "Nr": "Värn 1", "Tillgänglighet": null, "Bild": null, "Parkering": null, "Mindre kuriosa": null, "Modell": null, "Status": null, "Plomberad": null }, "geometry": { "type": "Point", "coordinates": [ 12.643824691885808, 56.131416466511531 ] } },
{ "type": "Feature", "properties": { "fid": 244, "Typ": "Skyddsrum", "Nr": "SK-HB", "Tillgänglighet": null, "Bild": null, "Parkering": null, "Mindre kuriosa": "Den enda av sin sort i hela Sverige", "Modell": null, "Status": null, "Plomberad": null }, "geometry": { "type": "Point", "coordinates": [ 12.641691611961134, 56.129591103379028 ] } }
]
}
