{
"type": "FeatureCollection",
"name": "lfv_dronarkarta",
"crs": { "type": "name", "properties": { "name": "urn:ogc:def:crs:OGC:1.3:CRS84" } },
"features": [
{ "type": "Feature", "properties": { "id": "RSTA.29768", "TYPEOFAREA": "RSTA", "NAMEOFAREA": "ES R55", "POSITIONIN": null, "NAMEOFOPER": null, "POSITIONINDICATOR": "ESAA", "DATETIMEOFCHG": null, "NAMEOFOPERATOR": null, "ORIGIN": "AIP", "LOCATION": "ES R55 KABUSA", "UPPER": "27500", "LOWER": "GND", "WEF": "2026-08-06", "COMMENT_1": null, "COMMENT_2": "Militär verksamhet inklusive flygverksamhet.\nTillstånd kan erhållas från MALMÖ ACC.\n\nMilitary activities including aviation operations. \nPermission obtainable from MALMÖ ACC.", "QUALITY": "ROUTINE", "CRC_ID": null, "CRC_POS": null, "CRC_TOT": null, "MSID": 181552, "IDNR": 29768, "MI_STYLE": null, "Färg": "RÖD", "layer": null, "path": null, "Länk": null, "TYPEOFPOIN": null, "NAMEOFPOIN": null, "TYPEOFPOINT": null, "NAMEOFPOINT": null, "ESTABLISHEDYEAR": null, "DRAWSEQNUMBER": null, "SEQUENCENUMBER": null, "COM_SE": null, "COM_EN": null, "MSL": null, "AGL": null, "ELLIPSOIDHEIGHT": null, "FREQ": null, "AFTN": null, "BASENO": null, "CRC_HEIGHT": null }, "geometry": { "type": "MultiPolygon", "coordinates": [ [ [ [ 13.963888888888873, 55.441388888888923 ], [ 13.9969444444444, 55.441388888888923 ], [ 14.105277777777779, 55.28305555555562 ], [ 13.930555555555621, 55.28305555555562 ], [ 13.797222222222166, 55.356666666666712 ], [ 13.963888888888873, 55.441388888888923 ] ] ] ] } },
{ "type": "Feature", "properties": { "id": "RWY5K.2", "TYPEOFAREA": "RW-5K", "NAMEOFAREA": "KRISTIANSTAD CTR", "POSITIONIN": "ESMK", "NAMEOFOPER": "", "POSITIONINDICATOR": null, "DATETIMEOFCHG": null, "NAMEOFOPERATOR": null, "ORIGIN": null, "LOCATION": "", "UPPER": null, "LOWER": null, "WEF": null, "COMMENT_1": "", "COMMENT_2": null, "QUALITY": null, "CRC_ID": null, "CRC_POS": null, "CRC_TOT": null, "MSID": null, "IDNR": null, "MI_STYLE": null, "Färg": "RÖD", "layer": null, "path": null, "Länk": null, "TYPEOFPOIN": null, "NAMEOFPOIN": null, "TYPEOFPOINT": null, "NAMEOFPOINT": null, "ESTABLISHEDYEAR": null, "DRAWSEQNUMBER": null, "SEQUENCENUMBER": null, "COM_SE": null, "COM_EN": null, "MSL": null, "AGL": null, "ELLIPSOIDHEIGHT": null, "FREQ": null, "AFTN": null, "BASENO": null, "CRC_HEIGHT": null }, "geometry": { "type": "MultiPolygon", "coordinates": [ [ [ [ 14.167989, 55.931556 ], [ 14.167684, 55.927637 ], [ 14.16327, 55.907884 ], [ 14.162356, 55.903995 ], [ 14.160841, 55.900165 ], [ 14.158735, 55.896424 ], [ 14.156056, 55.8928 ], [ 14.152824, 55.88932 ], [ 14.149062, 55.886012 ], [ 14.1448, 55.882899 ], [ 14.14007, 55.880007 ], [ 14.134909, 55.877357 ], [ 14.129354, 55.874969 ], [ 14.12345, 55.872861 ], [ 14.11724, 55.87105 ], [ 14.110772, 55.869549 ], [ 14.104095, 55.868369 ], [ 14.09726, 55.86752 ], [ 14.090319, 55.867008 ], [ 14.083325, 55.866837 ], [ 14.076331, 55.867008 ], [ 14.06939, 55.86752 ], [ 14.062555, 55.868369 ], [ 14.055878, 55.869549 ], [ 14.04941, 55.87105 ], [ 14.0432, 55.872861 ], [ 14.037296, 55.874969 ], [ 14.031741, 55.877357 ], [ 14.02658, 55.880007 ], [ 14.02185, 55.882899 ], [ 14.017588, 55.886012 ], [ 14.013826, 55.88932 ], [ 14.010594, 55.8928 ], [ 14.007915, 55.896424 ], [ 14.005809, 55.900165 ], [ 14.004294, 55.903995 ], [ 14.00338, 55.907884 ], [ 14.003075, 55.911803 ], [ 14.00338, 55.915722 ], [ 14.007794, 55.935475 ], [ 14.008708, 55.939364 ], [ 14.010223, 55.943194 ], [ 14.012329, 55.946935 ], [ 14.015008, 55.950559 ], [ 14.01824, 55.954039 ], [ 14.022002, 55.957347 ], [ 14.026264, 55.96046 ], [ 14.030994, 55.963352 ], [ 14.036155, 55.966002 ], [ 14.04171, 55.96839 ], [ 14.047614, 55.970498 ], [ 14.053824, 55.972309 ], [ 14.060292, 55.97381 ], [ 14.066969, 55.97499 ], [ 14.073804, 55.975839 ], [ 14.080745, 55.976351 ], [ 14.087739, 55.976522 ], [ 14.094733, 55.976351 ], [ 14.101674, 55.975839 ], [ 14.108509, 55.97499 ], [ 14.115186, 55.97381 ], [ 14.121654, 55.972309 ], [ 14.127864, 55.970498 ], [ 14.133768, 55.96839 ], [ 14.139323, 55.966002 ], [ 14.144484, 55.963352 ], [ 14.149214, 55.96046 ], [ 14.153476, 55.957347 ], [ 14.157238, 55.954039 ], [ 14.16047, 55.950559 ], [ 14.163149, 55.946935 ], [ 14.165255, 55.943194 ], [ 14.16677, 55.939364 ], [ 14.167684, 55.935475 ], [ 14.167989, 55.931556 ] ] ] ] } },
{ "type": "Feature", "properties": { "id": "CTR.16157", "TYPEOFAREA": "CTR", "NAMEOFAREA": "KRISTIANSTAD CTR", "POSITIONIN": null, "NAMEOFOPER": null, "POSITIONINDICATOR": "ESMK", "DATETIMEOFCHG": null, "NAMEOFOPERATOR": null, "ORIGIN": "AIP", "LOCATION": "KRISTIANSTAD CTR", "UPPER": "1700", "LOWER": "GND", "WEF": "2026-08-06", "COMMENT_1": "C", "COMMENT_2": null, "QUALITY": "ROUTINE", "CRC_ID": null, "CRC_POS": null, "CRC_TOT": null, "MSID": 4059, "IDNR": 16157, "MI_STYLE": null, "Färg": "ORANGE", "layer": null, "path": null, "Länk": null, "TYPEOFPOIN": null, "NAMEOFPOIN": null, "TYPEOFPOINT": null, "NAMEOFPOINT": null, "ESTABLISHEDYEAR": null, "DRAWSEQNUMBER": null, "SEQUENCENUMBER": null, "COM_SE": null, "COM_EN": null, "MSL": null, "AGL": null, "ELLIPSOIDHEIGHT": null, "FREQ": null, "AFTN": null, "BASENO": null, "CRC_HEIGHT": null }, "geometry": { "type": "MultiPolygon", "coordinates": [ [ [ [ 14.030555555555646, 56.133333333333269 ], [ 14.243055555555639, 56.125 ], [ 14.266666666666728, 55.910555555555618 ], [ 14.141666666666721, 55.730555555555611 ], [ 13.955555555555604, 55.738333333333316 ], [ 13.926666666666668, 55.937777777777768 ], [ 14.030555555555646, 56.133333333333269 ] ] ] ] } },
{ "type": "Feature", "properties": { "id": "RWY5K.4", "TYPEOFAREA": "RW-5K", "NAMEOFAREA": "ÄNGELHOLM CTR", "POSITIONIN": "ESTA", "NAMEOFOPER": "", "POSITIONINDICATOR": null, "DATETIMEOFCHG": null, "NAMEOFOPERATOR": null, "ORIGIN": null, "LOCATION": "", "UPPER": null, "LOWER": null, "WEF": null, "COMMENT_1": "", "COMMENT_2": null, "QUALITY": null, "CRC_ID": null, "CRC_POS": null, "CRC_TOT": null, "MSID": null, "IDNR": null, "MI_STYLE": null, "Färg": "RÖD", "layer": "Angelholm_CTR", "path": "/home/ragnarp/Downloads/Angelholm_CTR.geojson|geometrytype=MultiPolygon|uniqueGeometryType=yes", "Länk": "https://dronechart.lfv.se/?x=1432541.66551&y=7586623.20549&z=10.25201&r=0&l=001011111111", "TYPEOFPOIN": null, "NAMEOFPOIN": null, "TYPEOFPOINT": null, "NAMEOFPOINT": null, "ESTABLISHEDYEAR": null, "DRAWSEQNUMBER": null, "SEQUENCENUMBER": null, "COM_SE": null, "COM_EN": null, "MSL": null, "AGL": null, "ELLIPSOIDHEIGHT": null, "FREQ": null, "AFTN": null, "BASENO": null, "CRC_HEIGHT": null }, "geometry": { "type": "MultiPolygon", "coordinates": [ [ [ [ 12.946903, 56.285167 ], [ 12.946594, 56.281248 ], [ 12.945672, 56.277359 ], [ 12.944142, 56.273529 ], [ 12.942016, 56.269788 ], [ 12.939311, 56.266164 ], [ 12.936047, 56.262684 ], [ 12.93225, 56.259376 ], [ 12.927947, 56.256263 ], [ 12.923171, 56.253371 ], [ 12.91796, 56.250721 ], [ 12.912352, 56.248333 ], [ 12.90639, 56.246225 ], [ 12.900121, 56.244414 ], [ 12.89359, 56.242913 ], [ 12.886849, 56.241733 ], [ 12.879948, 56.240884 ], [ 12.87294, 56.240372 ], [ 12.865878, 56.240201 ], [ 12.858816, 56.240372 ], [ 12.851808, 56.240884 ], [ 12.844907, 56.241733 ], [ 12.838166, 56.242913 ], [ 12.831635, 56.244414 ], [ 12.825366, 56.246225 ], [ 12.819404, 56.248333 ], [ 12.813796, 56.250721 ], [ 12.808585, 56.253371 ], [ 12.786918, 56.266015 ], [ 12.782142, 56.268907 ], [ 12.777839, 56.27202 ], [ 12.774042, 56.275328 ], [ 12.770778, 56.278808 ], [ 12.768073, 56.282432 ], [ 12.765947, 56.286173 ], [ 12.764417, 56.290003 ], [ 12.763495, 56.293892 ], [ 12.763186, 56.297811 ], [ 12.763495, 56.30173 ], [ 12.764417, 56.305619 ], [ 12.765947, 56.309449 ], [ 12.768073, 56.31319 ], [ 12.770778, 56.316814 ], [ 12.774042, 56.320294 ], [ 12.777839, 56.323602 ], [ 12.782142, 56.326715 ], [ 12.786918, 56.329607 ], [ 12.792129, 56.332257 ], [ 12.797737, 56.334645 ], [ 12.803699, 56.336753 ], [ 12.809968, 56.338564 ], [ 12.816499, 56.340065 ], [ 12.82324, 56.341245 ], [ 12.830141, 56.342094 ], [ 12.837149, 56.342606 ], [ 12.844211, 56.342777 ], [ 12.851273, 56.342606 ], [ 12.858281, 56.342094 ], [ 12.865182, 56.341245 ], [ 12.871923, 56.340065 ], [ 12.878454, 56.338564 ], [ 12.884723, 56.336753 ], [ 12.890685, 56.334645 ], [ 12.896293, 56.332257 ], [ 12.901504, 56.329607 ], [ 12.923171, 56.316963 ], [ 12.927947, 56.314071 ], [ 12.93225, 56.310958 ], [ 12.936047, 56.30765 ], [ 12.939311, 56.30417 ], [ 12.942016, 56.300546 ], [ 12.944142, 56.296805 ], [ 12.945672, 56.292975 ], [ 12.946594, 56.289086 ], [ 12.946903, 56.285167 ] ] ] ] } },
{ "type": "Feature", "properties": { "id": "CTR.16179", "TYPEOFAREA": "CTR", "NAMEOFAREA": "ÄNGELHOLM CTR", "POSITIONIN": null, "NAMEOFOPER": null, "POSITIONINDICATOR": "ESTA", "DATETIMEOFCHG": null, "NAMEOFOPERATOR": null, "ORIGIN": "AIP", "LOCATION": "ÄNGELHOLM CTR", "UPPER": "1500", "LOWER": "GND", "WEF": "2026-08-06", "COMMENT_1": "C", "COMMENT_2": null, "QUALITY": "ROUTINE", "CRC_ID": null, "CRC_POS": null, "CRC_TOT": null, "MSID": 5663, "IDNR": 16179, "MI_STYLE": null, "Färg": "ORANGE", "layer": "Angelholm_CTR", "path": "/home/ragnarp/Downloads/Angelholm_CTR.geojson|geometrytype=MultiPolygon|uniqueGeometryType=yes", "Länk": "https://dronechart.lfv.se/?x=1432541.66551&y=7586623.20549&z=10.25201&r=0&l=001011111111", "TYPEOFPOIN": null, "NAMEOFPOIN": null, "TYPEOFPOINT": null, "NAMEOFPOINT": null, "ESTABLISHEDYEAR": null, "DRAWSEQNUMBER": null, "SEQUENCENUMBER": null, "COM_SE": null, "COM_EN": null, "MSL": null, "AGL": null, "ELLIPSOIDHEIGHT": null, "FREQ": null, "AFTN": null, "BASENO": null, "CRC_HEIGHT": null }, "geometry": { "type": "MultiPolygon", "coordinates": [ [ [ [ 12.6725, 56.455833333333317 ], [ 13.05555555555557, 56.383055555555615 ], [ 13.100555555555594, 56.216666666666669 ], [ 13.00111111111111, 56.158333333333303 ], [ 12.780833333333296, 56.212222222222209 ], [ 12.714166666666703, 56.249722222222204 ], [ 12.548611111111077, 56.38277777777779 ], [ 12.6725, 56.455833333333317 ] ] ] ] } },
{ "type": "Feature", "properties": { "id": "RSTA.29753", "TYPEOFAREA": "RSTA", "NAMEOFAREA": "ES R129", "POSITIONIN": null, "NAMEOFOPER": null, "POSITIONINDICATOR": "ESAA", "DATETIMEOFCHG": null, "NAMEOFOPERATOR": null, "ORIGIN": "AIP", "LOCATION": "ES R129 HELSINGBORG", "UPPER": "1200", "LOWER": "400", "WEF": "2026-08-06", "COMMENT_1": null, "COMMENT_2": "Särskilda tillstånd från Transportstyrelsen krävs förutom för svenska luftfartyg som används av Försvarsmakten, Polismyndigheten, Kustbevakningen, SAR, ambulanstransport samt luftfartyg när de används i räddningsinsatser enligt lag (2003:778) om skydd mot olyckor (2003:778). Tillstånd för undantagen trafik kan erhållas från MALMÖ ACC.\n\nSpecial permission by Swedish Transport Agency is required, except for Swedish aircraft operated by the Swedish Armed Forces, the Police Authority, the Coast Guard, SAR, ambulance services, and aircraft used in rescue operations in accordance with the Civil Protection Act (2003:778). Permission for exempted traffic obtainable from MALMÖ ACC.", "QUALITY": "ROUTINE", "CRC_ID": null, "CRC_POS": null, "CRC_TOT": null, "MSID": 296868, "IDNR": 29753, "MI_STYLE": null, "Färg": "RÖD", "layer": "ES_R129_Helsingborg", "path": "/home/ragnarp/Downloads/ES_R129_Helsingborg.geojson", "Länk": "https://dronechart.lfv.se/?x=1432541.66551&y=7586623.20549&z=10.25201&r=0&l=001011111111", "TYPEOFPOIN": null, "NAMEOFPOIN": null, "TYPEOFPOINT": null, "NAMEOFPOINT": null, "ESTABLISHEDYEAR": null, "DRAWSEQNUMBER": null, "SEQUENCENUMBER": null, "COM_SE": null, "COM_EN": null, "MSL": null, "AGL": null, "ELLIPSOIDHEIGHT": null, "FREQ": null, "AFTN": null, "BASENO": null, "CRC_HEIGHT": null }, "geometry": { "type": "MultiPolygon", "coordinates": [ [ [ [ 12.685555555555581, 56.090555555555596 ], [ 12.698055555555619, 56.09 ], [ 12.715555555555596, 56.078888888888912 ], [ 12.722777777777786, 56.084722222222211 ], [ 12.765, 56.08 ], [ 12.760555555555621, 56.072222222222194 ], [ 12.769444444444428, 56.0694444444444 ], [ 12.766944444444368, 56.063055555555593 ], [ 12.748055555555585, 56.061111111111131 ], [ 12.759166666666729, 56.043611111111119 ], [ 12.763333333333318, 56.028611111111104 ], [ 12.7625, 56.017777777777781 ], [ 12.779166666666679, 56.016666666666737 ], [ 12.778888888888865, 56.0025 ], [ 12.758888888888913, 56.001666666666722 ], [ 12.759444444444362, 55.99666666666667 ], [ 12.745277777777797, 55.990277777777806 ], [ 12.7425, 55.991388888888878 ], [ 12.734166666666743, 55.999166666666696 ], [ 12.716944444444399, 56.005833333333271 ], [ 12.7125, 56.004722222222199 ], [ 12.703055555555562, 56.006666666666717 ], [ 12.699722222222237, 56.017777777777781 ], [ 12.694722222222204, 56.024444444444413 ], [ 12.6902777777778, 56.025555555555599 ], [ 12.68861111111109, 56.0275 ], [ 12.6875, 56.039444444444371 ], [ 12.677777777777763, 56.062777777777768 ], [ 12.674444444444438, 56.066666666666691 ], [ 12.691666666666693, 56.07027777777779 ], [ 12.692222222222233, 56.076388888888886 ], [ 12.678055555555577, 56.079166666666708 ], [ 12.685555555555581, 56.090555555555596 ] ] ] ] } },
{ "type": "Feature", "properties": { "id": "RWY5K.3", "TYPEOFAREA": "RW-5K", "NAMEOFAREA": "LJUNGBYHED CTR", "POSITIONIN": "ESTL", "NAMEOFOPER": "", "POSITIONINDICATOR": null, "DATETIMEOFCHG": null, "NAMEOFOPERATOR": null, "ORIGIN": null, "LOCATION": "", "UPPER": null, "LOWER": null, "WEF": null, "COMMENT_1": "", "COMMENT_2": null, "QUALITY": null, "CRC_ID": null, "CRC_POS": null, "CRC_TOT": null, "MSID": null, "IDNR": null, "MI_STYLE": null, "Färg": "RÖD", "layer": null, "path": null, "Länk": null, "TYPEOFPOIN": null, "NAMEOFPOIN": null, "TYPEOFPOINT": null, "NAMEOFPOINT": null, "ESTABLISHEDYEAR": null, "DRAWSEQNUMBER": null, "SEQUENCENUMBER": null, "COM_SE": null, "COM_EN": null, "MSL": null, "AGL": null, "ELLIPSOIDHEIGHT": null, "FREQ": null, "AFTN": null, "BASENO": null, "CRC_HEIGHT": null }, "geometry": { "type": "MultiPolygon", "coordinates": [ [ [ [ 13.302634, 56.081475 ], [ 13.302327, 56.077556 ], [ 13.301409, 56.073667 ], [ 13.299888, 56.069837 ], [ 13.297774, 56.066096 ], [ 13.295083, 56.062472 ], [ 13.291837, 56.058992 ], [ 13.288059, 56.055684 ], [ 13.283779, 56.052571 ], [ 13.27903, 56.049679 ], [ 13.273846, 56.047029 ], [ 13.268268, 56.044641 ], [ 13.262339, 56.042533 ], [ 13.256103, 56.040722 ], [ 13.249607, 56.039221 ], [ 13.242902, 56.038041 ], [ 13.241539, 56.037872 ], [ 13.237937, 56.03704 ], [ 13.231232, 56.03586 ], [ 13.224369, 56.035011 ], [ 13.217398, 56.034499 ], [ 13.210375, 56.034328 ], [ 13.203352, 56.034499 ], [ 13.196381, 56.035011 ], [ 13.189518, 56.03586 ], [ 13.182813, 56.03704 ], [ 13.176318, 56.038541 ], [ 13.147154, 56.045761 ], [ 13.140918, 56.047572 ], [ 13.134989, 56.04968 ], [ 13.129412, 56.052068 ], [ 13.124228, 56.054718 ], [ 13.119479, 56.05761 ], [ 13.115199, 56.060723 ], [ 13.111422, 56.064031 ], [ 13.108176, 56.067511 ], [ 13.105485, 56.071135 ], [ 13.103371, 56.074876 ], [ 13.10185, 56.078706 ], [ 13.100932, 56.082595 ], [ 13.100626, 56.086514 ], [ 13.100932, 56.090433 ], [ 13.10185, 56.094322 ], [ 13.103371, 56.098152 ], [ 13.105485, 56.101893 ], [ 13.108176, 56.105517 ], [ 13.111422, 56.108997 ], [ 13.115199, 56.112305 ], [ 13.119479, 56.115418 ], [ 13.124228, 56.11831 ], [ 13.129412, 56.12096 ], [ 13.134989, 56.123348 ], [ 13.140918, 56.125456 ], [ 13.147154, 56.127267 ], [ 13.153649, 56.128768 ], [ 13.160354, 56.129948 ], [ 13.162695, 56.130238 ], [ 13.164943, 56.130757 ], [ 13.171648, 56.131937 ], [ 13.178512, 56.132786 ], [ 13.185482, 56.133298 ], [ 13.192506, 56.133469 ], [ 13.19953, 56.133298 ], [ 13.2065, 56.132786 ], [ 13.213364, 56.131937 ], [ 13.220069, 56.130757 ], [ 13.226565, 56.129256 ], [ 13.256103, 56.122228 ], [ 13.262339, 56.120417 ], [ 13.268268, 56.118309 ], [ 13.273846, 56.115921 ], [ 13.27903, 56.113271 ], [ 13.283779, 56.110379 ], [ 13.288059, 56.107266 ], [ 13.291837, 56.103958 ], [ 13.295083, 56.100478 ], [ 13.297774, 56.096854 ], [ 13.299888, 56.093113 ], [ 13.301409, 56.089283 ], [ 13.302327, 56.085394 ], [ 13.302634, 56.081475 ] ] ] ] } },
{ "type": "Feature", "properties": { "id": "CTR.16174", "TYPEOFAREA": "CTR", "NAMEOFAREA": "LJUNGBYHED CTR", "POSITIONIN": null, "NAMEOFOPER": null, "POSITIONINDICATOR": "ESTL", "DATETIMEOFCHG": null, "NAMEOFOPERATOR": null, "ORIGIN": "AIP", "LOCATION": "LJUNGBYHED CTR", "UPPER": "1500", "LOWER": "GND", "WEF": "2026-08-06", "COMMENT_1": "C", "COMMENT_2": null, "QUALITY": "ROUTINE", "CRC_ID": null, "CRC_POS": null, "CRC_TOT": null, "MSID": 4766, "IDNR": 16174, "MI_STYLE": null, "Färg": "ORANGE", "layer": null, "path": null, "Länk": null, "TYPEOFPOIN": null, "NAMEOFPOIN": null, "TYPEOFPOINT": null, "NAMEOFPOINT": null, "ESTABLISHEDYEAR": null, "DRAWSEQNUMBER": null, "SEQUENCENUMBER": null, "COM_SE": null, "COM_EN": null, "MSL": null, "AGL": null, "ELLIPSOIDHEIGHT": null, "FREQ": null, "AFTN": null, "BASENO": null, "CRC_HEIGHT": null }, "geometry": { "type": "MultiPolygon", "coordinates": [ [ [ [ 13.025555555555643, 56.155 ], [ 13.313888888888943, 56.125 ], [ 13.4525, 56.084166666666732 ], [ 13.35833333333334, 55.984166666666738 ], [ 13.13055555555561, 56.025 ], [ 12.9825, 56.087222222222209 ], [ 13.025555555555643, 56.155 ] ] ] ] } },
{ "type": "Feature", "properties": { "id": "HKP1K.18", "TYPEOFAREA": null, "NAMEOFAREA": null, "POSITIONIN": "ESEM", "NAMEOFOPER": null, "POSITIONINDICATOR": null, "DATETIMEOFCHG": null, "NAMEOFOPERATOR": null, "ORIGIN": null, "LOCATION": "LUND/Universitetssjukhuset", "UPPER": null, "LOWER": null, "WEF": null, "COMMENT_1": null, "COMMENT_2": null, "QUALITY": null, "CRC_ID": null, "CRC_POS": null, "CRC_TOT": null, "MSID": null, "IDNR": null, "MI_STYLE": null, "Färg": "RÖD", "layer": null, "path": null, "Länk": null, "TYPEOFPOIN": "ARP", "NAMEOFPOIN": "", "TYPEOFPOINT": null, "NAMEOFPOINT": null, "ESTABLISHEDYEAR": null, "DRAWSEQNUMBER": null, "SEQUENCENUMBER": null, "COM_SE": "", "COM_EN": "", "MSL": null, "AGL": null, "ELLIPSOIDHEIGHT": null, "FREQ": null, "AFTN": null, "BASENO": null, "CRC_HEIGHT": null }, "geometry": { "type": "MultiPolygon", "coordinates": [ [ [ [ 13.214797, 55.711899 ], [ 13.214799, 55.711852 ], [ 13.2148, 55.711805 ], [ 13.214801, 55.711758 ], [ 13.214802, 55.711711 ], [ 13.214802, 55.711664 ], [ 13.214802, 55.711617 ], [ 13.214801, 55.71157 ], [ 13.2148, 55.711523 ], [ 13.214799, 55.711476 ], [ 13.214797, 55.711429 ], [ 13.214794, 55.711382 ], [ 13.214791, 55.711335 ], [ 13.214788, 55.711288 ], [ 13.214784, 55.711241 ], [ 13.21478, 55.711194 ], [ 13.214775, 55.711147 ], [ 13.21477, 55.7111 ], [ 13.214765, 55.711053 ], [ 13.214759, 55.711006 ], [ 13.214753, 55.710959 ], [ 13.214746, 55.710912 ], [ 13.214739, 55.710866 ], [ 13.214731, 55.710819 ], [ 13.214723, 55.710772 ], [ 13.214714, 55.710725 ], [ 13.214705, 55.710678 ], [ 13.214696, 55.710632 ], [ 13.214686, 55.710585 ], [ 13.214676, 55.710538 ], [ 13.214665, 55.710492 ], [ 13.214654, 55.710445 ], [ 13.214642, 55.710398 ], [ 13.21463, 55.710352 ], [ 13.214618, 55.710305 ], [ 13.214605, 55.710259 ], [ 13.214592, 55.710212 ], [ 13.214578, 55.710166 ], [ 13.214564, 55.71012 ], [ 13.214549, 55.710073 ], [ 13.214534, 55.710027 ], [ 13.214519, 55.709981 ], [ 13.214503, 55.709935 ], [ 13.214487, 55.709888 ], [ 13.21447, 55.709842 ], [ 13.214453, 55.709796 ], [ 13.214435, 55.70975 ], [ 13.214417, 55.709704 ], [ 13.214399, 55.709659 ], [ 13.21438, 55.709613 ], [ 13.214361, 55.709567 ], [ 13.214341, 55.709521 ], [ 13.214321, 55.709476 ], [ 13.214301, 55.70943 ], [ 13.21428, 55.709384 ], [ 13.214258, 55.709339 ], [ 13.214236, 55.709294 ], [ 13.214214, 55.709248 ], [ 13.214191, 55.709203 ], [ 13.214168, 55.709158 ], [ 13.214145, 55.709113 ], [ 13.214121, 55.709068 ], [ 13.214097, 55.709023 ], [ 13.214072, 55.708978 ], [ 13.214047, 55.708933 ], [ 13.214021, 55.708888 ], [ 13.213995, 55.708843 ], [ 13.213969, 55.708799 ], [ 13.213942, 55.708754 ], [ 13.213915, 55.70871 ], [ 13.213887, 55.708665 ], [ 13.213859, 55.708621 ], [ 13.213831, 55.708577 ], [ 13.213802, 55.708533 ], [ 13.213772, 55.708489 ], [ 13.213743, 55.708445 ], [ 13.213713, 55.708401 ], [ 13.213682, 55.708357 ], [ 13.213651, 55.708313 ], [ 13.21362, 55.70827 ], [ 13.213588, 55.708226 ], [ 13.213556, 55.708183 ], [ 13.213524, 55.70814 ], [ 13.213491, 55.708096 ], [ 13.213457, 55.708053 ], [ 13.213424, 55.70801 ], [ 13.21339, 55.707967 ], [ 13.213355, 55.707925 ], [ 13.21332, 55.707882 ], [ 13.213285, 55.707839 ], [ 13.213249, 55.707797 ], [ 13.213213, 55.707754 ], [ 13.213177, 55.707712 ], [ 13.21314, 55.70767 ], [ 13.213102, 55.707628 ], [ 13.213065, 55.707586 ], [ 13.213027, 55.707544 ], [ 13.212988, 55.707502 ], [ 13.212949, 55.707461 ], [ 13.21291, 55.707419 ], [ 13.212871, 55.707378 ], [ 13.212831, 55.707337 ], [ 13.21279, 55.707295 ], [ 13.21275, 55.707254 ], [ 13.212708, 55.707213 ], [ 13.212667, 55.707173 ], [ 13.212625, 55.707132 ], [ 13.212583, 55.707091 ], [ 13.21254, 55.707051 ], [ 13.212497, 55.707011 ], [ 13.212454, 55.706971 ], [ 13.21241, 55.706931 ], [ 13.212366, 55.706891 ], [ 13.212322, 55.706851 ], [ 13.212277, 55.706811 ], [ 13.212231, 55.706772 ], [ 13.212186, 55.706732 ], [ 13.21214, 55.706693 ], [ 13.212094, 55.706654 ], [ 13.212047, 55.706615 ], [ 13.212, 55.706576 ], [ 13.211952, 55.706538 ], [ 13.211905, 55.706499 ], [ 13.211857, 55.706461 ], [ 13.211808, 55.706422 ], [ 13.211759, 55.706384 ], [ 13.21171, 55.706346 ], [ 13.211661, 55.706308 ], [ 13.211611, 55.706271 ], [ 13.211561, 55.706233 ], [ 13.21151, 55.706196 ], [ 13.211459, 55.706159 ], [ 13.211408, 55.706121 ], [ 13.211356, 55.706085 ], [ 13.211304, 55.706048 ], [ 13.211252, 55.706011 ], [ 13.211199, 55.705975 ], [ 13.211146, 55.705938 ], [ 13.211093, 55.705902 ], [ 13.211039, 55.705866 ], [ 13.210986, 55.70583 ], [ 13.210931, 55.705795 ], [ 13.210877, 55.705759 ], [ 13.210822, 55.705724 ], [ 13.210766, 55.705689 ], [ 13.210711, 55.705654 ], [ 13.210655, 55.705619 ], [ 13.210599, 55.705584 ], [ 13.210542, 55.70555 ], [ 13.210485, 55.705515 ], [ 13.210428, 55.705481 ], [ 13.21037, 55.705447 ], [ 13.210313, 55.705413 ], [ 13.210254, 55.705379 ], [ 13.210196, 55.705346 ], [ 13.210137, 55.705313 ], [ 13.210078, 55.705279 ], [ 13.210019, 55.705246 ], [ 13.209959, 55.705214 ], [ 13.209899, 55.705181 ], [ 13.209839, 55.705148 ], [ 13.209778, 55.705116 ], [ 13.209717, 55.705084 ], [ 13.209656, 55.705052 ], [ 13.209594, 55.70502 ], [ 13.209533, 55.704989 ], [ 13.209471, 55.704958 ], [ 13.209408, 55.704926 ], [ 13.209346, 55.704895 ], [ 13.209283, 55.704865 ], [ 13.209219, 55.704834 ], [ 13.209156, 55.704803 ], [ 13.209092, 55.704773 ], [ 13.209028, 55.704743 ], [ 13.208964, 55.704713 ], [ 13.208899, 55.704684 ], [ 13.208834, 55.704654 ], [ 13.208769, 55.704625 ], [ 13.208704, 55.704596 ], [ 13.208638, 55.704567 ], [ 13.208572, 55.704538 ], [ 13.208506, 55.70451 ], [ 13.208439, 55.704481 ], [ 13.208372, 55.704453 ], [ 13.208305, 55.704425 ], [ 13.208238, 55.704397 ], [ 13.208171, 55.70437 ], [ 13.208103, 55.704342 ], [ 13.208035, 55.704315 ], [ 13.207966, 55.704288 ], [ 13.207898, 55.704262 ], [ 13.207829, 55.704235 ], [ 13.20776, 55.704209 ], [ 13.207691, 55.704183 ], [ 13.207621, 55.704157 ], [ 13.207551, 55.704131 ], [ 13.207481, 55.704106 ], [ 13.207411, 55.70408 ], [ 13.207341, 55.704055 ], [ 13.20727, 55.70403 ], [ 13.207199, 55.704006 ], [ 13.207128, 55.703981 ], [ 13.207057, 55.703957 ], [ 13.206985, 55.703933 ], [ 13.206913, 55.703909 ], [ 13.206841, 55.703885 ], [ 13.206769, 55.703862 ], [ 13.206696, 55.703839 ], [ 13.206624, 55.703816 ], [ 13.206551, 55.703793 ], [ 13.206478, 55.703771 ], [ 13.206404, 55.703748 ], [ 13.206331, 55.703726 ], [ 13.206257, 55.703704 ], [ 13.206183, 55.703683 ], [ 13.206109, 55.703661 ], [ 13.206035, 55.70364 ], [ 13.20596, 55.703619 ], [ 13.205885, 55.703598 ], [ 13.205811, 55.703578 ], [ 13.205735, 55.703557 ], [ 13.20566, 55.703537 ], [ 13.205585, 55.703517 ], [ 13.205509, 55.703498 ], [ 13.205433, 55.703478 ], [ 13.205357, 55.703459 ], [ 13.205281, 55.70344 ], [ 13.205205, 55.703421 ], [ 13.205128, 55.703402 ], [ 13.205051, 55.703384 ], [ 13.204974, 55.703366 ], [ 13.204897, 55.703348 ], [ 13.20482, 55.703331 ], [ 13.204743, 55.703313 ], [ 13.204665, 55.703296 ], [ 13.204587, 55.703279 ], [ 13.20451, 55.703262 ], [ 13.204432, 55.703246 ], [ 13.204353, 55.703229 ], [ 13.204275, 55.703213 ], [ 13.204197, 55.703198 ], [ 13.204118, 55.703182 ], [ 13.204039, 55.703167 ], [ 13.20396, 55.703152 ], [ 13.203881, 55.703137 ], [ 13.203802, 55.703122 ], [ 13.203723, 55.703108 ], [ 13.203644, 55.703093 ], [ 13.203564, 55.70308 ], [ 13.203484, 55.703066 ], [ 13.203404, 55.703052 ], [ 13.203324, 55.703039 ], [ 13.203244, 55.703026 ], [ 13.203164, 55.703013 ], [ 13.203084, 55.703001 ], [ 13.203004, 55.702989 ], [ 13.202923, 55.702977 ], [ 13.202842, 55.702965 ], [ 13.202762, 55.702953 ], [ 13.202681, 55.702942 ], [ 13.2026, 55.702931 ], [ 13.202519, 55.70292 ], [ 13.202438, 55.702909 ], [ 13.202356, 55.702899 ], [ 13.202275, 55.702889 ], [ 13.202194, 55.702879 ], [ 13.202112, 55.702869 ], [ 13.20203, 55.70286 ], [ 13.201949, 55.702851 ], [ 13.201867, 55.702842 ], [ 13.201785, 55.702833 ], [ 13.201703, 55.702825 ], [ 13.201621, 55.702816 ], [ 13.201539, 55.702809 ], [ 13.201457, 55.702801 ], [ 13.201375, 55.702793 ], [ 13.201292, 55.702786 ], [ 13.20121, 55.702779 ], [ 13.201127, 55.702772 ], [ 13.201045, 55.702766 ], [ 13.200962, 55.70276 ], [ 13.20088, 55.702754 ], [ 13.200797, 55.702748 ], [ 13.200714, 55.702742 ], [ 13.200632, 55.702737 ], [ 13.200549, 55.702732 ], [ 13.200466, 55.702727 ], [ 13.200383, 55.702723 ], [ 13.2003, 55.702718 ], [ 13.200217, 55.702714 ], [ 13.200134, 55.702711 ], [ 13.200051, 55.702707 ], [ 13.199968, 55.702704 ], [ 13.199885, 55.702701 ], [ 13.199802, 55.702698 ], [ 13.199718, 55.702695 ], [ 13.199635, 55.702693 ], [ 13.199552, 55.702691 ], [ 13.199469, 55.702689 ], [ 13.199385, 55.702687 ], [ 13.199302, 55.702686 ], [ 13.199219, 55.702685 ], [ 13.199136, 55.702684 ], [ 13.199052, 55.702684 ], [ 13.198969, 55.702683 ], [ 13.198886, 55.702683 ], [ 13.198802, 55.702683 ], [ 13.198719, 55.702684 ], [ 13.198636, 55.702684 ], [ 13.198553, 55.702685 ], [ 13.198469, 55.702686 ], [ 13.198386, 55.702688 ], [ 13.198303, 55.702689 ], [ 13.19822, 55.702691 ], [ 13.198136, 55.702693 ], [ 13.198053, 55.702695 ], [ 13.19797, 55.702698 ], [ 13.197887, 55.702701 ], [ 13.197804, 55.702704 ], [ 13.197721, 55.702707 ], [ 13.197637, 55.702711 ], [ 13.197554, 55.702715 ], [ 13.197471, 55.702719 ], [ 13.197389, 55.702723 ], [ 13.197306, 55.702728 ], [ 13.197223, 55.702732 ], [ 13.19714, 55.702737 ], [ 13.197057, 55.702743 ], [ 13.196974, 55.702748 ], [ 13.196892, 55.702754 ], [ 13.196809, 55.70276 ], [ 13.196727, 55.702766 ], [ 13.196644, 55.702773 ], [ 13.196562, 55.70278 ], [ 13.196479, 55.702787 ], [ 13.196397, 55.702794 ], [ 13.196315, 55.702801 ], [ 13.196233, 55.702809 ], [ 13.19615, 55.702817 ], [ 13.196068, 55.702825 ], [ 13.195986, 55.702834 ], [ 13.195905, 55.702842 ], [ 13.195823, 55.702851 ], [ 13.195741, 55.702861 ], [ 13.19566, 55.70287 ], [ 13.195578, 55.70288 ], [ 13.195497, 55.70289 ], [ 13.195415, 55.7029 ], [ 13.195334, 55.70291 ], [ 13.195253, 55.702921 ], [ 13.195172, 55.702932 ], [ 13.195091, 55.702943 ], [ 13.19501, 55.702954 ], [ 13.194929, 55.702966 ], [ 13.194849, 55.702978 ], [ 13.194768, 55.70299 ], [ 13.194688, 55.703002 ], [ 13.194607, 55.703014 ], [ 13.194527, 55.703027 ], [ 13.194447, 55.70304 ], [ 13.194367, 55.703053 ], [ 13.194287, 55.703067 ], [ 13.194208, 55.703081 ], [ 13.194128, 55.703095 ], [ 13.194049, 55.703109 ], [ 13.19397, 55.703123 ], [ 13.19389, 55.703138 ], [ 13.193811, 55.703153 ], [ 13.193732, 55.703168 ], [ 13.193654, 55.703183 ], [ 13.193575, 55.703199 ], [ 13.193497, 55.703215 ], [ 13.193418, 55.703231 ], [ 13.19334, 55.703247 ], [ 13.193262, 55.703264 ], [ 13.193184, 55.70328 ], [ 13.193107, 55.703297 ], [ 13.193029, 55.703314 ], [ 13.192952, 55.703332 ], [ 13.192875, 55.70335 ], [ 13.192798, 55.703367 ], [ 13.192721, 55.703386 ], [ 13.192644, 55.703404 ], [ 13.192567, 55.703423 ], [ 13.192491, 55.703441 ], [ 13.192415, 55.70346 ], [ 13.192339, 55.70348 ], [ 13.192263, 55.703499 ], [ 13.192187, 55.703519 ], [ 13.192112, 55.703539 ], [ 13.192037, 55.703559 ], [ 13.191962, 55.703579 ], [ 13.191887, 55.7036 ], [ 13.191812, 55.703621 ], [ 13.191737, 55.703642 ], [ 13.191663, 55.703663 ], [ 13.191589, 55.703684 ], [ 13.191515, 55.703706 ], [ 13.191441, 55.703728 ], [ 13.191368, 55.70375 ], [ 13.191295, 55.703772 ], [ 13.191221, 55.703795 ], [ 13.191149, 55.703818 ], [ 13.191076, 55.703841 ], [ 13.191003, 55.703864 ], [ 13.190931, 55.703887 ], [ 13.190859, 55.703911 ], [ 13.190787, 55.703935 ], [ 13.190716, 55.703959 ], [ 13.190644, 55.703983 ], [ 13.190573, 55.704008 ], [ 13.190502, 55.704032 ], [ 13.190432, 55.704057 ], [ 13.190361, 55.704082 ], [ 13.190291, 55.704108 ], [ 13.190221, 55.704133 ], [ 13.190151, 55.704159 ], [ 13.190082, 55.704185 ], [ 13.190013, 55.704211 ], [ 13.189943, 55.704237 ], [ 13.189875, 55.704264 ], [ 13.189806, 55.704291 ], [ 13.189738, 55.704318 ], [ 13.18967, 55.704345 ], [ 13.189602, 55.704372 ], [ 13.189535, 55.7044 ], [ 13.189467, 55.704427 ], [ 13.1894, 55.704455 ], [ 13.189334, 55.704483 ], [ 13.189267, 55.704512 ], [ 13.189201, 55.70454 ], [ 13.189135, 55.704569 ], [ 13.189069, 55.704598 ], [ 13.189004, 55.704627 ], [ 13.188939, 55.704656 ], [ 13.188874, 55.704686 ], [ 13.188809, 55.704716 ], [ 13.188745, 55.704746 ], [ 13.188681, 55.704776 ], [ 13.188617, 55.704806 ], [ 13.188554, 55.704836 ], [ 13.18849, 55.704867 ], [ 13.188427, 55.704898 ], [ 13.188365, 55.704929 ], [ 13.188302, 55.70496 ], [ 13.18824, 55.704991 ], [ 13.188179, 55.705023 ], [ 13.188117, 55.705055 ], [ 13.188056, 55.705087 ], [ 13.187995, 55.705119 ], [ 13.187935, 55.705151 ], [ 13.187874, 55.705184 ], [ 13.187814, 55.705216 ], [ 13.187755, 55.705249 ], [ 13.187695, 55.705282 ], [ 13.187636, 55.705315 ], [ 13.187577, 55.705349 ], [ 13.187519, 55.705382 ], [ 13.187461, 55.705416 ], [ 13.187403, 55.70545 ], [ 13.187346, 55.705484 ], [ 13.187288, 55.705518 ], [ 13.187232, 55.705552 ], [ 13.187175, 55.705587 ], [ 13.187119, 55.705621 ], [ 13.187063, 55.705656 ], [ 13.187007, 55.705691 ], [ 13.186952, 55.705727 ], [ 13.186897, 55.705762 ], [ 13.186843, 55.705798 ], [ 13.186788, 55.705833 ], [ 13.186734, 55.705869 ], [ 13.186681, 55.705905 ], [ 13.186627, 55.705941 ], [ 13.186575, 55.705978 ], [ 13.186522, 55.706014 ], [ 13.18647, 55.706051 ], [ 13.186418, 55.706087 ], [ 13.186366, 55.706124 ], [ 13.186315, 55.706161 ], [ 13.186264, 55.706199 ], [ 13.186214, 55.706236 ], [ 13.186163, 55.706274 ], [ 13.186113, 55.706311 ], [ 13.186064, 55.706349 ], [ 13.186015, 55.706387 ], [ 13.185966, 55.706425 ], [ 13.185918, 55.706464 ], [ 13.18587, 55.706502 ], [ 13.185822, 55.706541 ], [ 13.185774, 55.706579 ], [ 13.185727, 55.706618 ], [ 13.185681, 55.706657 ], [ 13.185635, 55.706696 ], [ 13.185589, 55.706735 ], [ 13.185543, 55.706775 ], [ 13.185498, 55.706814 ], [ 13.185453, 55.706854 ], [ 13.185409, 55.706894 ], [ 13.185364, 55.706934 ], [ 13.185321, 55.706974 ], [ 13.185277, 55.707014 ], [ 13.185234, 55.707054 ], [ 13.185192, 55.707095 ], [ 13.18515, 55.707135 ], [ 13.185108, 55.707176 ], [ 13.185066, 55.707217 ], [ 13.185025, 55.707258 ], [ 13.184985, 55.707299 ], [ 13.184944, 55.70734 ], [ 13.184904, 55.707381 ], [ 13.184865, 55.707422 ], [ 13.184826, 55.707464 ], [ 13.184787, 55.707506 ], [ 13.184748, 55.707547 ], [ 13.18471, 55.707589 ], [ 13.184673, 55.707631 ], [ 13.184635, 55.707673 ], [ 13.184599, 55.707715 ], [ 13.184562, 55.707758 ], [ 13.184526, 55.7078 ], [ 13.18449, 55.707843 ], [ 13.184455, 55.707885 ], [ 13.18442, 55.707928 ], [ 13.184386, 55.707971 ], [ 13.184352, 55.708014 ], [ 13.184318, 55.708057 ], [ 13.184285, 55.7081 ], [ 13.184252, 55.708143 ], [ 13.184219, 55.708186 ], [ 13.184187, 55.70823 ], [ 13.184156, 55.708273 ], [ 13.184124, 55.708317 ], [ 13.184093, 55.708361 ], [ 13.184063, 55.708404 ], [ 13.184033, 55.708448 ], [ 13.184003, 55.708492 ], [ 13.183974, 55.708536 ], [ 13.183945, 55.70858 ], [ 13.183917, 55.708625 ], [ 13.183889, 55.708669 ], [ 13.183861, 55.708713 ], [ 13.183834, 55.708758 ], [ 13.183807, 55.708802 ], [ 13.183781, 55.708847 ], [ 13.183755, 55.708892 ], [ 13.183729, 55.708936 ], [ 13.183704, 55.708981 ], [ 13.183679, 55.709026 ], [ 13.183655, 55.709071 ], [ 13.183631, 55.709116 ], [ 13.183608, 55.709161 ], [ 13.183585, 55.709207 ], [ 13.183562, 55.709252 ], [ 13.18354, 55.709297 ], [ 13.183518, 55.709343 ], [ 13.183497, 55.709388 ], [ 13.183476, 55.709434 ], [ 13.183455, 55.709479 ], [ 13.183435, 55.709525 ], [ 13.183416, 55.709571 ], [ 13.183396, 55.709616 ], [ 13.183378, 55.709662 ], [ 13.183359, 55.709708 ], [ 13.183341, 55.709754 ], [ 13.183324, 55.7098 ], [ 13.183307, 55.709846 ], [ 13.18329, 55.709892 ], [ 13.183274, 55.709938 ], [ 13.183258, 55.709984 ], [ 13.183242, 55.710031 ], [ 13.183227, 55.710077 ], [ 13.183213, 55.710123 ], [ 13.183199, 55.71017 ], [ 13.183185, 55.710216 ], [ 13.183172, 55.710262 ], [ 13.183159, 55.710309 ], [ 13.183147, 55.710355 ], [ 13.183135, 55.710402 ], [ 13.183123, 55.710449 ], [ 13.183112, 55.710495 ], [ 13.183101, 55.710542 ], [ 13.183091, 55.710589 ], [ 13.183081, 55.710635 ], [ 13.183072, 55.710682 ], [ 13.183063, 55.710729 ], [ 13.183055, 55.710776 ], [ 13.183047, 55.710822 ], [ 13.183039, 55.710869 ], [ 13.183032, 55.710916 ], [ 13.183025, 55.710963 ], [ 13.183019, 55.71101 ], [ 13.183013, 55.711057 ], [ 13.183007, 55.711104 ], [ 13.183002, 55.711151 ], [ 13.182998, 55.711198 ], [ 13.182994, 55.711245 ], [ 13.18299, 55.711292 ], [ 13.182987, 55.711339 ], [ 13.182984, 55.711386 ], [ 13.182981, 55.711433 ], [ 13.182979, 55.71148 ], [ 13.182978, 55.711527 ], [ 13.182977, 55.711574 ], [ 13.182976, 55.711621 ], [ 13.182976, 55.711668 ], [ 13.182976, 55.711715 ], [ 13.182977, 55.711762 ], [ 13.182978, 55.711809 ], [ 13.182979, 55.711856 ], [ 13.182981, 55.711903 ], [ 13.182984, 55.71195 ], [ 13.182987, 55.711997 ], [ 13.18299, 55.712044 ], [ 13.182994, 55.712091 ], [ 13.182998, 55.712138 ], [ 13.183002, 55.712185 ], [ 13.183007, 55.712232 ], [ 13.183013, 55.712279 ], [ 13.183019, 55.712326 ], [ 13.183025, 55.712373 ], [ 13.183032, 55.71242 ], [ 13.183039, 55.712466 ], [ 13.183046, 55.712513 ], [ 13.183055, 55.71256 ], [ 13.183063, 55.712607 ], [ 13.183072, 55.712654 ], [ 13.183081, 55.7127 ], [ 13.183091, 55.712747 ], [ 13.183101, 55.712794 ], [ 13.183112, 55.71284 ], [ 13.183123, 55.712887 ], [ 13.183135, 55.712934 ], [ 13.183147, 55.71298 ], [ 13.183159, 55.713027 ], [ 13.183172, 55.713073 ], [ 13.183185, 55.71312 ], [ 13.183199, 55.713166 ], [ 13.183213, 55.713212 ], [ 13.183227, 55.713259 ], [ 13.183242, 55.713305 ], [ 13.183258, 55.713351 ], [ 13.183274, 55.713397 ], [ 13.18329, 55.713444 ], [ 13.183306, 55.71349 ], [ 13.183324, 55.713536 ], [ 13.183341, 55.713582 ], [ 13.183359, 55.713628 ], [ 13.183377, 55.713673 ], [ 13.183396, 55.713719 ], [ 13.183416, 55.713765 ], [ 13.183435, 55.713811 ], [ 13.183455, 55.713856 ], [ 13.183476, 55.713902 ], [ 13.183497, 55.713948 ], [ 13.183518, 55.713993 ], [ 13.18354, 55.714038 ], [ 13.183562, 55.714084 ], [ 13.183585, 55.714129 ], [ 13.183608, 55.714174 ], [ 13.183631, 55.714219 ], [ 13.183655, 55.714264 ], [ 13.183679, 55.714309 ], [ 13.183704, 55.714354 ], [ 13.183729, 55.714399 ], [ 13.183755, 55.714444 ], [ 13.183781, 55.714489 ], [ 13.183807, 55.714533 ], [ 13.183834, 55.714578 ], [ 13.183861, 55.714622 ], [ 13.183889, 55.714667 ], [ 13.183917, 55.714711 ], [ 13.183945, 55.714755 ], [ 13.183974, 55.714799 ], [ 13.184003, 55.714843 ], [ 13.184033, 55.714887 ], [ 13.184063, 55.714931 ], [ 13.184093, 55.714975 ], [ 13.184124, 55.715019 ], [ 13.184155, 55.715062 ], [ 13.184187, 55.715106 ], [ 13.184219, 55.715149 ], [ 13.184252, 55.715193 ], [ 13.184285, 55.715236 ], [ 13.184318, 55.715279 ], [ 13.184352, 55.715322 ], [ 13.184386, 55.715365 ], [ 13.18442, 55.715408 ], [ 13.184455, 55.71545 ], [ 13.18449, 55.715493 ], [ 13.184526, 55.715536 ], [ 13.184562, 55.715578 ], [ 13.184599, 55.71562 ], [ 13.184635, 55.715662 ], [ 13.184673, 55.715704 ], [ 13.18471, 55.715746 ], [ 13.184748, 55.715788 ], [ 13.184787, 55.71583 ], [ 13.184826, 55.715872 ], [ 13.184865, 55.715913 ], [ 13.184904, 55.715955 ], [ 13.184944, 55.715996 ], [ 13.184985, 55.716037 ], [ 13.185025, 55.716078 ], [ 13.185066, 55.716119 ], [ 13.185108, 55.71616 ], [ 13.18515, 55.7162 ], [ 13.185192, 55.716241 ], [ 13.185235, 55.716281 ], [ 13.185278, 55.716322 ], [ 13.185321, 55.716362 ], [ 13.185365, 55.716402 ], [ 13.185409, 55.716442 ], [ 13.185453, 55.716482 ], [ 13.185498, 55.716521 ], [ 13.185543, 55.716561 ], [ 13.185589, 55.7166 ], [ 13.185635, 55.716639 ], [ 13.185681, 55.716679 ], [ 13.185728, 55.716718 ], [ 13.185775, 55.716756 ], [ 13.185822, 55.716795 ], [ 13.18587, 55.716834 ], [ 13.185918, 55.716872 ], [ 13.185966, 55.71691 ], [ 13.186015, 55.716948 ], [ 13.186064, 55.716986 ], [ 13.186114, 55.717024 ], [ 13.186164, 55.717062 ], [ 13.186214, 55.717099 ], [ 13.186264, 55.717137 ], [ 13.186315, 55.717174 ], [ 13.186367, 55.717211 ], [ 13.186418, 55.717248 ], [ 13.18647, 55.717285 ], [ 13.186522, 55.717322 ], [ 13.186575, 55.717358 ], [ 13.186628, 55.717394 ], [ 13.186681, 55.717431 ], [ 13.186735, 55.717467 ], [ 13.186789, 55.717502 ], [ 13.186843, 55.717538 ], [ 13.186898, 55.717574 ], [ 13.186953, 55.717609 ], [ 13.187008, 55.717644 ], [ 13.187064, 55.717679 ], [ 13.18712, 55.717714 ], [ 13.187176, 55.717749 ], [ 13.187232, 55.717783 ], [ 13.187289, 55.717818 ], [ 13.187346, 55.717852 ], [ 13.187404, 55.717886 ], [ 13.187462, 55.71792 ], [ 13.18752, 55.717954 ], [ 13.187578, 55.717987 ], [ 13.187637, 55.71802 ], [ 13.187696, 55.718054 ], [ 13.187756, 55.718087 ], [ 13.187815, 55.718119 ], [ 13.187875, 55.718152 ], [ 13.187936, 55.718184 ], [ 13.187996, 55.718217 ], [ 13.188057, 55.718249 ], [ 13.188118, 55.718281 ], [ 13.18818, 55.718313 ], [ 13.188242, 55.718344 ], [ 13.188304, 55.718376 ], [ 13.188366, 55.718407 ], [ 13.188429, 55.718438 ], [ 13.188492, 55.718469 ], [ 13.188555, 55.718499 ], [ 13.188618, 55.71853 ], [ 13.188682, 55.71856 ], [ 13.188746, 55.71859 ], [ 13.188811, 55.71862 ], [ 13.188875, 55.71865 ], [ 13.18894, 55.718679 ], [ 13.189005, 55.718708 ], [ 13.189071, 55.718738 ], [ 13.189137, 55.718766 ], [ 13.189203, 55.718795 ], [ 13.189269, 55.718824 ], [ 13.189335, 55.718852 ], [ 13.189402, 55.71888 ], [ 13.189469, 55.718908 ], [ 13.189536, 55.718936 ], [ 13.189604, 55.718963 ], [ 13.189672, 55.718991 ], [ 13.18974, 55.719018 ], [ 13.189808, 55.719045 ], [ 13.189877, 55.719072 ], [ 13.189945, 55.719098 ], [ 13.190015, 55.719124 ], [ 13.190084, 55.719151 ], [ 13.190153, 55.719177 ], [ 13.190223, 55.719202 ], [ 13.190293, 55.719228 ], [ 13.190363, 55.719253 ], [ 13.190434, 55.719278 ], [ 13.190505, 55.719303 ], [ 13.190576, 55.719328 ], [ 13.190647, 55.719352 ], [ 13.190718, 55.719376 ], [ 13.19079, 55.719401 ], [ 13.190862, 55.719424 ], [ 13.190934, 55.719448 ], [ 13.191006, 55.719471 ], [ 13.191078, 55.719495 ], [ 13.191151, 55.719518 ], [ 13.191224, 55.71954 ], [ 13.191297, 55.719563 ], [ 13.191371, 55.719585 ], [ 13.191444, 55.719607 ], [ 13.191518, 55.719629 ], [ 13.191592, 55.719651 ], [ 13.191666, 55.719672 ], [ 13.19174, 55.719694 ], [ 13.191815, 55.719715 ], [ 13.19189, 55.719735 ], [ 13.191965, 55.719756 ], [ 13.19204, 55.719776 ], [ 13.192115, 55.719797 ], [ 13.192191, 55.719816 ], [ 13.192266, 55.719836 ], [ 13.192342, 55.719856 ], [ 13.192418, 55.719875 ], [ 13.192494, 55.719894 ], [ 13.192571, 55.719913 ], [ 13.192647, 55.719931 ], [ 13.192724, 55.71995 ], [ 13.192801, 55.719968 ], [ 13.192878, 55.719986 ], [ 13.192955, 55.720003 ], [ 13.193033, 55.720021 ], [ 13.19311, 55.720038 ], [ 13.193188, 55.720055 ], [ 13.193266, 55.720071 ], [ 13.193344, 55.720088 ], [ 13.193422, 55.720104 ], [ 13.193501, 55.72012 ], [ 13.193579, 55.720136 ], [ 13.193658, 55.720152 ], [ 13.193736, 55.720167 ], [ 13.193815, 55.720182 ], [ 13.193894, 55.720197 ], [ 13.193974, 55.720212 ], [ 13.194053, 55.720226 ], [ 13.194132, 55.72024 ], [ 13.194212, 55.720254 ], [ 13.194292, 55.720268 ], [ 13.194372, 55.720281 ], [ 13.194452, 55.720295 ], [ 13.194532, 55.720308 ], [ 13.194612, 55.72032 ], [ 13.194692, 55.720333 ], [ 13.194773, 55.720345 ], [ 13.194853, 55.720357 ], [ 13.194934, 55.720369 ], [ 13.195015, 55.720381 ], [ 13.195095, 55.720392 ], [ 13.195176, 55.720403 ], [ 13.195258, 55.720414 ], [ 13.195339, 55.720425 ], [ 13.19542, 55.720435 ], [ 13.195501, 55.720445 ], [ 13.195583, 55.720455 ], [ 13.195664, 55.720465 ], [ 13.195746, 55.720474 ], [ 13.195828, 55.720483 ], [ 13.19591, 55.720492 ], [ 13.195992, 55.720501 ], [ 13.196074, 55.720509 ], [ 13.196156, 55.720517 ], [ 13.196238, 55.720525 ], [ 13.19632, 55.720533 ], [ 13.196402, 55.720541 ], [ 13.196485, 55.720548 ], [ 13.196567, 55.720555 ], [ 13.19665, 55.720562 ], [ 13.196732, 55.720568 ], [ 13.196815, 55.720574 ], [ 13.196897, 55.72058 ], [ 13.19698, 55.720586 ], [ 13.197063, 55.720592 ], [ 13.197146, 55.720597 ], [ 13.197228, 55.720602 ], [ 13.197311, 55.720607 ], [ 13.197394, 55.720611 ], [ 13.197477, 55.720616 ], [ 13.19756, 55.72062 ], [ 13.197643, 55.720623 ], [ 13.197727, 55.720627 ], [ 13.19781, 55.72063 ], [ 13.197893, 55.720633 ], [ 13.197976, 55.720636 ], [ 13.198059, 55.720639 ], [ 13.198142, 55.720641 ], [ 13.198226, 55.720643 ], [ 13.198309, 55.720645 ], [ 13.198392, 55.720647 ], [ 13.198476, 55.720648 ], [ 13.198559, 55.720649 ], [ 13.198642, 55.72065 ], [ 13.198726, 55.72065 ], [ 13.198809, 55.720651 ], [ 13.198892, 55.720651 ], [ 13.198976, 55.720651 ], [ 13.199059, 55.72065 ], [ 13.199142, 55.72065 ], [ 13.199226, 55.720649 ], [ 13.199309, 55.720648 ], [ 13.199392, 55.720646 ], [ 13.199475, 55.720645 ], [ 13.199559, 55.720643 ], [ 13.199642, 55.720641 ], [ 13.199725, 55.720639 ], [ 13.199808, 55.720636 ], [ 13.199892, 55.720633 ], [ 13.199975, 55.72063 ], [ 13.200058, 55.720627 ], [ 13.200141, 55.720623 ], [ 13.200224, 55.720619 ], [ 13.200307, 55.720615 ], [ 13.20039, 55.720611 ], [ 13.200473, 55.720606 ], [ 13.200556, 55.720602 ], [ 13.200639, 55.720596 ], [ 13.200722, 55.720591 ], [ 13.200804, 55.720586 ], [ 13.200887, 55.72058 ], [ 13.20097, 55.720574 ], [ 13.201052, 55.720568 ], [ 13.201135, 55.720561 ], [ 13.201217, 55.720554 ], [ 13.2013, 55.720547 ], [ 13.201382, 55.72054 ], [ 13.201464, 55.720533 ], [ 13.201547, 55.720525 ], [ 13.201629, 55.720517 ], [ 13.201711, 55.720509 ], [ 13.201793, 55.7205 ], [ 13.201875, 55.720491 ], [ 13.201956, 55.720482 ], [ 13.202038, 55.720473 ], [ 13.20212, 55.720464 ], [ 13.202201, 55.720454 ], [ 13.202283, 55.720444 ], [ 13.202364, 55.720434 ], [ 13.202446, 55.720424 ], [ 13.202527, 55.720413 ], [ 13.202608, 55.720402 ], [ 13.202689, 55.720391 ], [ 13.20277, 55.72038 ], [ 13.20285, 55.720368 ], [ 13.202931, 55.720356 ], [ 13.203012, 55.720344 ], [ 13.203092, 55.720332 ], [ 13.203172, 55.720319 ], [ 13.203253, 55.720307 ], [ 13.203333, 55.720294 ], [ 13.203413, 55.72028 ], [ 13.203493, 55.720267 ], [ 13.203572, 55.720253 ], [ 13.203652, 55.720239 ], [ 13.203731, 55.720225 ], [ 13.203811, 55.720211 ], [ 13.20389, 55.720196 ], [ 13.203969, 55.720181 ], [ 13.204048, 55.720166 ], [ 13.204126, 55.720151 ], [ 13.204205, 55.720135 ], [ 13.204284, 55.720119 ], [ 13.204362, 55.720103 ], [ 13.20444, 55.720087 ], [ 13.204518, 55.72007 ], [ 13.204596, 55.720053 ], [ 13.204674, 55.720036 ], [ 13.204751, 55.720019 ], [ 13.204829, 55.720002 ], [ 13.204906, 55.719984 ], [ 13.204983, 55.719966 ], [ 13.20506, 55.719948 ], [ 13.205137, 55.71993 ], [ 13.205213, 55.719911 ], [ 13.20529, 55.719892 ], [ 13.205366, 55.719873 ], [ 13.205442, 55.719854 ], [ 13.205518, 55.719835 ], [ 13.205593, 55.719815 ], [ 13.205669, 55.719795 ], [ 13.205744, 55.719775 ], [ 13.205819, 55.719754 ], [ 13.205894, 55.719734 ], [ 13.205969, 55.719713 ], [ 13.206043, 55.719692 ], [ 13.206118, 55.719671 ], [ 13.206192, 55.719649 ], [ 13.206266, 55.719628 ], [ 13.20634, 55.719606 ], [ 13.206413, 55.719583 ], [ 13.206486, 55.719561 ], [ 13.20656, 55.719539 ], [ 13.206633, 55.719516 ], [ 13.206705, 55.719493 ], [ 13.206778, 55.71947 ], [ 13.20685, 55.719446 ], [ 13.206922, 55.719423 ], [ 13.206994, 55.719399 ], [ 13.207065, 55.719375 ], [ 13.207137, 55.71935 ], [ 13.207208, 55.719326 ], [ 13.207279, 55.719301 ], [ 13.20735, 55.719276 ], [ 13.20742, 55.719251 ], [ 13.20749, 55.719226 ], [ 13.20756, 55.7192 ], [ 13.20763, 55.719175 ], [ 13.2077, 55.719149 ], [ 13.207769, 55.719122 ], [ 13.207838, 55.719096 ], [ 13.207907, 55.71907 ], [ 13.207975, 55.719043 ], [ 13.208044, 55.719016 ], [ 13.208112, 55.718989 ], [ 13.208179, 55.718961 ], [ 13.208247, 55.718934 ], [ 13.208314, 55.718906 ], [ 13.208381, 55.718878 ], [ 13.208448, 55.71885 ], [ 13.208514, 55.718822 ], [ 13.208581, 55.718793 ], [ 13.208647, 55.718764 ], [ 13.208712, 55.718735 ], [ 13.208778, 55.718706 ], [ 13.208843, 55.718677 ], [ 13.208908, 55.718647 ], [ 13.208972, 55.718618 ], [ 13.209037, 55.718588 ], [ 13.209101, 55.718558 ], [ 13.209165, 55.718527 ], [ 13.209228, 55.718497 ], [ 13.209291, 55.718466 ], [ 13.209354, 55.718435 ], [ 13.209417, 55.718404 ], [ 13.209479, 55.718373 ], [ 13.209541, 55.718342 ], [ 13.209603, 55.71831 ], [ 13.209664, 55.718278 ], [ 13.209726, 55.718246 ], [ 13.209786, 55.718214 ], [ 13.209847, 55.718182 ], [ 13.209907, 55.71815 ], [ 13.209967, 55.718117 ], [ 13.210027, 55.718084 ], [ 13.210086, 55.718051 ], [ 13.210145, 55.718018 ], [ 13.210204, 55.717984 ], [ 13.210263, 55.717951 ], [ 13.210321, 55.717917 ], [ 13.210379, 55.717883 ], [ 13.210436, 55.717849 ], [ 13.210493, 55.717815 ], [ 13.21055, 55.717781 ], [ 13.210607, 55.717746 ], [ 13.210663, 55.717711 ], [ 13.210719, 55.717677 ], [ 13.210774, 55.717641 ], [ 13.21083, 55.717606 ], [ 13.210885, 55.717571 ], [ 13.210939, 55.717535 ], [ 13.210993, 55.7175 ], [ 13.211047, 55.717464 ], [ 13.211101, 55.717428 ], [ 13.211154, 55.717392 ], [ 13.211207, 55.717355 ], [ 13.21126, 55.717319 ], [ 13.211312, 55.717282 ], [ 13.211364, 55.717245 ], [ 13.211415, 55.717208 ], [ 13.211467, 55.717171 ], [ 13.211517, 55.717134 ], [ 13.211568, 55.717097 ], [ 13.211618, 55.717059 ], [ 13.211668, 55.717021 ], [ 13.211718, 55.716983 ], [ 13.211767, 55.716945 ], [ 13.211815, 55.716907 ], [ 13.211864, 55.716869 ], [ 13.211912, 55.716831 ], [ 13.21196, 55.716792 ], [ 13.212007, 55.716753 ], [ 13.212054, 55.716715 ], [ 13.212101, 55.716676 ], [ 13.212147, 55.716636 ], [ 13.212193, 55.716597 ], [ 13.212238, 55.716558 ], [ 13.212283, 55.716518 ], [ 13.212328, 55.716479 ], [ 13.212373, 55.716439 ], [ 13.212417, 55.716399 ], [ 13.212461, 55.716359 ], [ 13.212504, 55.716319 ], [ 13.212547, 55.716278 ], [ 13.212589, 55.716238 ], [ 13.212632, 55.716197 ], [ 13.212673, 55.716157 ], [ 13.212715, 55.716116 ], [ 13.212756, 55.716075 ], [ 13.212797, 55.716034 ], [ 13.212837, 55.715993 ], [ 13.212877, 55.715951 ], [ 13.212916, 55.71591 ], [ 13.212956, 55.715868 ], [ 13.212994, 55.715827 ], [ 13.213033, 55.715785 ], [ 13.213071, 55.715743 ], [ 13.213108, 55.715701 ], [ 13.213145, 55.715659 ], [ 13.213182, 55.715617 ], [ 13.213219, 55.715575 ], [ 13.213255, 55.715532 ], [ 13.21329, 55.71549 ], [ 13.213326, 55.715447 ], [ 13.213361, 55.715404 ], [ 13.213395, 55.715362 ], [ 13.213429, 55.715319 ], [ 13.213463, 55.715276 ], [ 13.213496, 55.715232 ], [ 13.213529, 55.715189 ], [ 13.213561, 55.715146 ], [ 13.213593, 55.715102 ], [ 13.213625, 55.715059 ], [ 13.213656, 55.715015 ], [ 13.213687, 55.714972 ], [ 13.213718, 55.714928 ], [ 13.213748, 55.714884 ], [ 13.213777, 55.71484 ], [ 13.213806, 55.714796 ], [ 13.213835, 55.714752 ], [ 13.213864, 55.714708 ], [ 13.213892, 55.714663 ], [ 13.213919, 55.714619 ], [ 13.213946, 55.714574 ], [ 13.213973, 55.71453 ], [ 13.213999, 55.714485 ], [ 13.214025, 55.714441 ], [ 13.214051, 55.714396 ], [ 13.214076, 55.714351 ], [ 13.214101, 55.714306 ], [ 13.214125, 55.714261 ], [ 13.214149, 55.714216 ], [ 13.214172, 55.714171 ], [ 13.214195, 55.714126 ], [ 13.214218, 55.71408 ], [ 13.21424, 55.714035 ], [ 13.214262, 55.713989 ], [ 13.214283, 55.713944 ], [ 13.214304, 55.713898 ], [ 13.214324, 55.713853 ], [ 13.214344, 55.713807 ], [ 13.214364, 55.713762 ], [ 13.214383, 55.713716 ], [ 13.214402, 55.71367 ], [ 13.21442, 55.713624 ], [ 13.214438, 55.713578 ], [ 13.214456, 55.713532 ], [ 13.214473, 55.713486 ], [ 13.21449, 55.71344 ], [ 13.214506, 55.713394 ], [ 13.214522, 55.713348 ], [ 13.214537, 55.713301 ], [ 13.214552, 55.713255 ], [ 13.214566, 55.713209 ], [ 13.21458, 55.713162 ], [ 13.214594, 55.713116 ], [ 13.214607, 55.71307 ], [ 13.21462, 55.713023 ], [ 13.214632, 55.712977 ], [ 13.214644, 55.71293 ], [ 13.214656, 55.712883 ], [ 13.214667, 55.712837 ], [ 13.214678, 55.71279 ], [ 13.214688, 55.712743 ], [ 13.214697, 55.712697 ], [ 13.214707, 55.71265 ], [ 13.214716, 55.712603 ], [ 13.214724, 55.712556 ], [ 13.214732, 55.71251 ], [ 13.21474, 55.712463 ], [ 13.214747, 55.712416 ], [ 13.214754, 55.712369 ], [ 13.21476, 55.712322 ], [ 13.214766, 55.712275 ], [ 13.214771, 55.712228 ], [ 13.214776, 55.712181 ], [ 13.214781, 55.712134 ], [ 13.214785, 55.712087 ], [ 13.214788, 55.71204 ], [ 13.214792, 55.711993 ], [ 13.214795, 55.711946 ], [ 13.214797, 55.711899 ] ] ] ] } },
{ "type": "Feature", "properties": { "id": "RSTA.29776", "TYPEOFAREA": "RSTA", "NAMEOFAREA": "ES R130", "POSITIONIN": null, "NAMEOFOPER": null, "POSITIONINDICATOR": "ESAA", "DATETIMEOFCHG": null, "NAMEOFOPERATOR": null, "ORIGIN": "AIP", "LOCATION": "ES R130 MALMÖ", "UPPER": "1200", "LOWER": "400", "WEF": "2026-08-06", "COMMENT_1": null, "COMMENT_2": "Särskilda tillstånd från Transportstyrelsen krävs \n förutom för svenska luftfartyg som används av \n Försvarsmakten, Polismyndigheten, Kustbevakningen,\n SAR, ambulanstransport samt luftfartyg när de\n används i räddningsinsatser enligt lag (2003:778)\n om skydd mot olyckor (2003:778).\nTillstånd för undantagen trafik kan erhållas av\n MALMÖ ACC. \n\nSpecial permission by Swedish Transport Agency is\n required, except for Swedish aircraft operated by\n the Swedish Armed Forces, the Police Authority,\n the Coast Guard, SAR, ambulance services, and \n aircraft used in rescue operations in accordance \n with the Civil Protection Act (2003:778). \nPermission for exempted traffic obtainable from\n MALMÖ ACC.", "QUALITY": "ROUTINE", "CRC_ID": null, "CRC_POS": null, "CRC_TOT": null, "MSID": 296869, "IDNR": 29776, "MI_STYLE": null, "Färg": "RÖD", "layer": null, "path": null, "Länk": null, "TYPEOFPOIN": null, "NAMEOFPOIN": null, "TYPEOFPOINT": null, "NAMEOFPOINT": null, "ESTABLISHEDYEAR": null, "DRAWSEQNUMBER": null, "SEQUENCENUMBER": null, "COM_SE": null, "COM_EN": null, "MSL": null, "AGL": null, "ELLIPSOIDHEIGHT": null, "FREQ": null, "AFTN": null, "BASENO": null, "CRC_HEIGHT": null }, "geometry": { "type": "MultiPolygon", "coordinates": [ [ [ [ 13.098055555555622, 55.650555555555599 ], [ 13.104166666666734, 55.641666666666708 ], [ 13.0675, 55.622777777777799 ], [ 13.09, 55.607777777777784 ], [ 13.112222222222186, 55.612222222222243 ], [ 13.116944444444407, 55.593888888888898 ], [ 13.110833333333295, 55.577777777777754 ], [ 13.088055555555558, 55.566111111111098 ], [ 13.061666666666682, 55.55 ], [ 12.993611111111104, 55.545555555555609 ], [ 12.959166666666686, 55.546388888888913 ], [ 12.925, 55.562777777777796 ], [ 12.901111111111087, 55.563333333333304 ], [ 12.892777777777818, 55.566388888888866 ], [ 12.923888888888911, 55.594722222222202 ], [ 12.969722222222201, 55.605277777777815 ], [ 12.970277777777831, 55.614444444444416 ], [ 12.995555555555628, 55.637222222222192 ], [ 13.05861111111108, 55.643333333333317 ], [ 13.098055555555622, 55.650555555555599 ] ] ] ] } },
{ "type": "Feature", "properties": { "id": "RSTA.29674", "TYPEOFAREA": "RSTA", "NAMEOFAREA": "ES R34", "POSITIONIN": null, "NAMEOFOPER": null, "POSITIONINDICATOR": "ESAA", "DATETIMEOFCHG": null, "NAMEOFOPERATOR": null, "ORIGIN": "AIP", "LOCATION": "ES R34 RAVLUNDA", "UPPER": "17000", "LOWER": "GND", "WEF": "2026-08-06", "COMMENT_1": null, "COMMENT_2": "Militär verksamhet inklusive flygverksamhet. \nTillstånd kan erhållas från MALMÖ ACC eller KRISTIANSTAD ATS.\n\nMilitary activities including aviation operations.\nPermission obtainable from MALMÖ ACC or KRISTIANSTAD ATS.", "QUALITY": "ROUTINE", "CRC_ID": null, "CRC_POS": null, "CRC_TOT": null, "MSID": 4421, "IDNR": 29674, "MI_STYLE": null, "Färg": "RÖD", "layer": null, "path": null, "Länk": null, "TYPEOFPOIN": null, "NAMEOFPOIN": null, "TYPEOFPOINT": null, "NAMEOFPOINT": null, "ESTABLISHEDYEAR": null, "DRAWSEQNUMBER": null, "SEQUENCENUMBER": null, "COM_SE": null, "COM_EN": null, "MSL": null, "AGL": null, "ELLIPSOIDHEIGHT": null, "FREQ": null, "AFTN": null, "BASENO": null, "CRC_HEIGHT": null }, "geometry": { "type": "MultiPolygon", "coordinates": [ [ [ [ 14.374444444444393, 55.939722222222201 ], [ 14.386496350412964, 55.935644093678036 ], [ 14.398874109295898, 55.93112501350339 ], [ 14.410961304976921, 55.926365825528421 ], [ 14.422743154731025, 55.92137232791822 ], [ 14.434205258861377, 55.916150604363992 ], [ 14.445333618474166, 55.910707016671694 ], [ 14.456114652709658, 55.905048197010018 ], [ 14.466535215407292, 55.899181039828335 ], [ 14.476582611182009, 55.893112693452707 ], [ 14.486244610894236, 55.886850551371481 ], [ 14.495509466491853, 55.880402243221823 ], [ 14.504365925208244, 55.873775625486132 ], [ 14.512803243097739, 55.866978771913296 ], [ 14.520811197895034, 55.860019963673125 ], [ 14.528380101181293, 55.85290767925909 ], [ 14.535500809846697, 55.845650584149979 ], [ 14.54216473683427, 55.838257520244809 ], [ 14.548363861156632, 55.830737495082616 ], [ 14.554090737174274, 55.823099670861836 ], [ 14.559338503128172, 55.815353353272201 ], [ 14.564100888917684, 55.807507980152906 ], [ 14.568372223119198, 55.799573109991115 ], [ 14.572147439239441, 55.791558410274206 ], [ 14.575422081199912, 55.783473645712121 ], [ 14.578192308049518, 55.775328666340812 ], [ 14.580454897903508, 55.76713339552461 ], [ 14.582207251107691, 55.758897817869496 ], [ 14.583447392629239, 55.750631967063129 ], [ 14.584173973672986, 55.742345913656266 ], [ 14.584386272528302, 55.734049752799478 ], [ 14.584084194647598, 55.725753591950735 ], [ 14.583268271960089, 55.717467538568002 ], [ 14.581939661427507, 55.709201687802221 ], [ 14.580100142845533, 55.700966110204291 ], [ 14.577752115897802, 55.692770839462383 ], [ 14.574898596471094, 55.684625860182791 ], [ 14.571543212236417, 55.676541095730187 ], [ 14.567690197508686, 55.668526396140606 ], [ 14.563344387391048, 55.660591526123625 ], [ 14.558511211216091, 55.65274615316639 ], [ 14.553196685293504, 55.644999835754902 ], [ 14.547407404976131, 55.637362011726822 ], [ 14.541150536057069, 55.629841986769804 ], [ 14.534433805509687, 55.622448923079787 ], [ 14.527265491584487, 55.615191828192621 ], [ 14.519654413276612, 55.608079544003431 ], [ 14.511609919179412, 55.60112073598691 ], [ 14.503141875738388, 55.594323882631727 ], [ 14.494260654921575, 55.587697265103088 ], [ 14.484977121322872, 55.581248957144538 ], [ 14.475302618715419, 55.574986815233785 ], [ 14.464722222222164, 55.568611111111096 ], [ 14.196111111111094, 55.723611111111126 ], [ 14.155277777777838, 55.721944444444404 ], [ 14.138611111111123, 55.753888888888866 ], [ 14.165, 55.769166666666706 ], [ 14.195555555555641, 55.762222222222221 ], [ 14.374444444444393, 55.939722222222201 ] ] ] ] } },
{ "type": "Feature", "properties": { "id": "RSTA.29675", "TYPEOFAREA": "RSTA", "NAMEOFAREA": "ES R35", "POSITIONIN": null, "NAMEOFOPER": null, "POSITIONINDICATOR": "ESAA", "DATETIMEOFCHG": null, "NAMEOFOPERATOR": null, "ORIGIN": "AIP", "LOCATION": "ES R35 RAVLUNDA VÄST", "UPPER": "10500", "LOWER": "GND", "WEF": "2026-08-06", "COMMENT_1": null, "COMMENT_2": "Militär verksamhet inklusive flygverksamhet.\nTillstånd kan erhållas från MALMÖ ACC eller KRISTIANSTAD ATS.\n\nMilitary activities including aviation operations. \nPermission obtainable from MALMÖ ACC or KRISTIANSTAD ATS.", "QUALITY": "ROUTINE", "CRC_ID": null, "CRC_POS": null, "CRC_TOT": null, "MSID": 4422, "IDNR": 29675, "MI_STYLE": null, "Färg": "RÖD", "layer": null, "path": null, "Länk": null, "TYPEOFPOIN": null, "NAMEOFPOIN": null, "TYPEOFPOINT": null, "NAMEOFPOINT": null, "ESTABLISHEDYEAR": null, "DRAWSEQNUMBER": null, "SEQUENCENUMBER": null, "COM_SE": null, "COM_EN": null, "MSL": null, "AGL": null, "ELLIPSOIDHEIGHT": null, "FREQ": null, "AFTN": null, "BASENO": null, "CRC_HEIGHT": null }, "geometry": { "type": "MultiPolygon", "coordinates": [ [ [ [ 14.096388888888884, 55.77555555555557 ], [ 14.165, 55.769166666666706 ], [ 14.138611111111123, 55.753888888888866 ], [ 14.155277777777838, 55.721944444444404 ], [ 14.196111111111094, 55.723611111111126 ], [ 14.121388888888868, 55.701111111111118 ], [ 14.066111111111141, 55.751944444444376 ], [ 14.096388888888884, 55.77555555555557 ] ] ] ] } },
{ "type": "Feature", "properties": { "id": "RSTA.29715", "TYPEOFAREA": "RSTA", "NAMEOFAREA": "ES R121B", "POSITIONIN": null, "NAMEOFOPER": null, "POSITIONINDICATOR": "ESAA", "DATETIMEOFCHG": null, "NAMEOFOPERATOR": null, "ORIGIN": "AIP", "LOCATION": "ES R121B REVINGE", "UPPER": "2000", "LOWER": "GND", "WEF": "2026-08-06", "COMMENT_1": null, "COMMENT_2": "Militär verksamhet inklusive flygverksamhet.\nTillstånd kan erhållas från MALMÖ ACC.\n\nMilitary activities including aviation operations.\nPermission obtainable from MALMÖ ACC.", "QUALITY": "ROUTINE", "CRC_ID": null, "CRC_POS": null, "CRC_TOT": null, "MSID": 214559, "IDNR": 29715, "MI_STYLE": null, "Färg": "RÖD", "layer": null, "path": null, "Länk": null, "TYPEOFPOIN": null, "NAMEOFPOIN": null, "TYPEOFPOINT": null, "NAMEOFPOINT": null, "ESTABLISHEDYEAR": null, "DRAWSEQNUMBER": null, "SEQUENCENUMBER": null, "COM_SE": null, "COM_EN": null, "MSL": null, "AGL": null, "ELLIPSOIDHEIGHT": null, "FREQ": null, "AFTN": null, "BASENO": null, "CRC_HEIGHT": null }, "geometry": { "type": "MultiPolygon", "coordinates": [ [ [ [ 13.700555555555557, 55.774722222222209 ], [ 13.679166666666713, 55.635833333333352 ], [ 13.638611111111095, 55.638888888888914 ], [ 13.608888888888892, 55.640833333333319 ], [ 13.491944444444428, 55.644722222222214 ], [ 13.604444444444397, 55.769444444444446 ], [ 13.700555555555557, 55.774722222222209 ] ] ] ] } },
{ "type": "Feature", "properties": { "id": "RSTA.29713", "TYPEOFAREA": "RSTA", "NAMEOFAREA": "ES R121", "POSITIONIN": null, "NAMEOFOPER": null, "POSITIONINDICATOR": "ESAA", "DATETIMEOFCHG": null, "NAMEOFOPERATOR": null, "ORIGIN": "AIP", "LOCATION": "ES R121 REVINGE", "UPPER": "2000", "LOWER": "GND", "WEF": "2026-08-06", "COMMENT_1": null, "COMMENT_2": "Militär verksamhet inklusive flygverksamhet.\nTillstånd kan erhållas från MALMÖ ACC.\n\nMilitary activities including aviation operations.\nPermission obtainable from MALMÖ ACC.", "QUALITY": "ROUTINE", "CRC_ID": null, "CRC_POS": null, "CRC_TOT": null, "MSID": 214557, "IDNR": 29713, "MI_STYLE": null, "Färg": "RÖD", "layer": null, "path": null, "Länk": null, "TYPEOFPOIN": null, "NAMEOFPOIN": null, "TYPEOFPOINT": null, "NAMEOFPOINT": null, "ESTABLISHEDYEAR": null, "DRAWSEQNUMBER": null, "SEQUENCENUMBER": null, "COM_SE": null, "COM_EN": null, "MSL": null, "AGL": null, "ELLIPSOIDHEIGHT": null, "FREQ": null, "AFTN": null, "BASENO": null, "CRC_HEIGHT": null }, "geometry": { "type": "MultiPolygon", "coordinates": [ [ [ [ 13.700555555555557, 55.774722222222209 ], [ 13.679166666666713, 55.635833333333352 ], [ 13.638611111111095, 55.638888888888914 ], [ 13.608888888888892, 55.640833333333319 ], [ 13.491944444444428, 55.644722222222214 ], [ 13.464444444444382, 55.681111111111107 ], [ 13.436111111111074, 55.768611111111113 ], [ 13.604444444444397, 55.769444444444446 ], [ 13.700555555555557, 55.774722222222209 ] ] ] ] } },
{ "type": "Feature", "properties": { "id": "RSTA.29735", "TYPEOFAREA": "RSTA", "NAMEOFAREA": "ES R123", "POSITIONIN": null, "NAMEOFOPER": null, "POSITIONINDICATOR": "ESAA", "DATETIMEOFCHG": null, "NAMEOFOPERATOR": null, "ORIGIN": "AIP", "LOCATION": "ES R123 SANDBY", "UPPER": "1500", "LOWER": "GND", "WEF": "2026-08-06", "COMMENT_1": null, "COMMENT_2": "Militär verksamhet inklusive flygverksamhet.\nTillstånd kan erhållas från MALMÖ ACC.\n\nMilitary activities including aviation operations.\nPermission obtainable from MALMÖ ACC.", "QUALITY": "ROUTINE", "CRC_ID": null, "CRC_POS": null, "CRC_TOT": null, "MSID": 275275, "IDNR": 29735, "MI_STYLE": null, "Färg": "RÖD", "layer": null, "path": null, "Länk": null, "TYPEOFPOIN": null, "NAMEOFPOIN": null, "TYPEOFPOINT": null, "NAMEOFPOINT": null, "ESTABLISHEDYEAR": null, "DRAWSEQNUMBER": null, "SEQUENCENUMBER": null, "COM_SE": null, "COM_EN": null, "MSL": null, "AGL": null, "ELLIPSOIDHEIGHT": null, "FREQ": null, "AFTN": null, "BASENO": null, "CRC_HEIGHT": null }, "geometry": { "type": "MultiPolygon", "coordinates": [ [ [ [ 13.436111111111074, 55.768611111111113 ], [ 13.464444444444382, 55.681111111111107 ], [ 13.41833333333328, 55.6875 ], [ 13.388888888888895, 55.706111111111085 ], [ 13.403333333333272, 55.725277777777791 ], [ 13.414722222222229, 55.723055555555618 ], [ 13.426111111111098, 55.72416666666669 ], [ 13.431111111111131, 55.731944444444395 ], [ 13.411388888888906, 55.735833333333346 ], [ 13.436111111111074, 55.768611111111113 ] ] ] ] } },
{ "type": "Feature", "properties": { "id": "RSTA.29678", "TYPEOFAREA": "RSTA", "NAMEOFAREA": "ES R38A", "POSITIONIN": null, "NAMEOFOPER": null, "POSITIONINDICATOR": "ESAA", "DATETIMEOFCHG": null, "NAMEOFOPERATOR": null, "ORIGIN": "AIP", "LOCATION": "ES R38A RINKABY", "UPPER": "17000", "LOWER": "GND", "WEF": "2026-08-06", "COMMENT_1": null, "COMMENT_2": "Militär verksamhet inklusive flygverksamhet.\nTillstånd kan erhållas från MALMÖ ACC eller KRISTIANSTAD ATS.\n\nMilitary activities including aviation operations.\nPermission obtainable from MALMÖ ACC or KRISTIANSTAD ATS.", "QUALITY": "ROUTINE", "CRC_ID": null, "CRC_POS": null, "CRC_TOT": null, "MSID": 4424, "IDNR": 29678, "MI_STYLE": null, "Färg": "RÖD", "layer": null, "path": null, "Länk": null, "TYPEOFPOIN": null, "NAMEOFPOIN": null, "TYPEOFPOINT": null, "NAMEOFPOINT": null, "ESTABLISHEDYEAR": null, "DRAWSEQNUMBER": null, "SEQUENCENUMBER": null, "COM_SE": null, "COM_EN": null, "MSL": null, "AGL": null, "ELLIPSOIDHEIGHT": null, "FREQ": null, "AFTN": null, "BASENO": null, "CRC_HEIGHT": null }, "geometry": { "type": "MultiPolygon", "coordinates": [ [ [ [ 14.271944444444399, 55.991388888888878 ], [ 14.33861111111108, 55.974722222222226 ], [ 14.4802777777778, 55.966388888888929 ], [ 14.363611111111064, 55.891388888888883 ], [ 14.321944444444362, 55.941388888888895 ], [ 14.263611111111128, 55.966388888888929 ], [ 14.271944444444399, 55.991388888888878 ] ] ] ] } },
{ "type": "Feature", "properties": { "id": "RSTA.29679", "TYPEOFAREA": "RSTA", "NAMEOFAREA": "ES R38B", "POSITIONIN": null, "NAMEOFOPER": null, "POSITIONINDICATOR": "ESAA", "DATETIMEOFCHG": null, "NAMEOFOPERATOR": null, "ORIGIN": "AIP", "LOCATION": "ES R38B RINKABY", "UPPER": "17000", "LOWER": "GND", "WEF": "2026-08-06", "COMMENT_1": null, "COMMENT_2": "Militär verksamhet inklusive flygverksamhet.\nTillstånd kan erhållas från MALMÖ ACC eller KRISTIANSTAD ATS.\n\nMilitary activities including aviation operations.\nPermission obtainable from MALMÖ ACC or KRISTIANSTAD ATS.", "QUALITY": "ROUTINE", "CRC_ID": null, "CRC_POS": null, "CRC_TOT": null, "MSID": 4425, "IDNR": 29679, "MI_STYLE": null, "Färg": "RÖD", "layer": null, "path": null, "Länk": null, "TYPEOFPOIN": null, "NAMEOFPOIN": null, "TYPEOFPOINT": null, "NAMEOFPOINT": null, "ESTABLISHEDYEAR": null, "DRAWSEQNUMBER": null, "SEQUENCENUMBER": null, "COM_SE": null, "COM_EN": null, "MSL": null, "AGL": null, "ELLIPSOIDHEIGHT": null, "FREQ": null, "AFTN": null, "BASENO": null, "CRC_HEIGHT": null }, "geometry": { "type": "MultiPolygon", "coordinates": [ [ [ [ 14.280277777777751, 56.016388888888883 ], [ 14.321944444444362, 56.016388888888883 ], [ 14.33861111111108, 55.974722222222226 ], [ 14.271944444444399, 55.991388888888878 ], [ 14.280277777777751, 56.016388888888883 ] ] ] ] } },
{ "type": "Feature", "properties": { "id": "RWY5K.5", "TYPEOFAREA": "RW-5K", "NAMEOFAREA": "RONNEBY CTR", "POSITIONIN": "ESDF", "NAMEOFOPER": "", "POSITIONINDICATOR": null, "DATETIMEOFCHG": null, "NAMEOFOPERATOR": null, "ORIGIN": null, "LOCATION": "", "UPPER": null, "LOWER": null, "WEF": null, "COMMENT_1": "", "COMMENT_2": null, "QUALITY": null, "CRC_ID": null, "CRC_POS": null, "CRC_TOT": null, "MSID": null, "IDNR": null, "MI_STYLE": null, "Färg": "RÖD", "layer": null, "path": null, "Länk": null, "TYPEOFPOIN": null, "NAMEOFPOIN": null, "TYPEOFPOINT": null, "NAMEOFPOINT": null, "ESTABLISHEDYEAR": null, "DRAWSEQNUMBER": null, "SEQUENCENUMBER": null, "COM_SE": null, "COM_EN": null, "MSL": null, "AGL": null, "ELLIPSOIDHEIGHT": null, "FREQ": null, "AFTN": null, "BASENO": null, "CRC_HEIGHT": null }, "geometry": { "type": "MultiPolygon", "coordinates": [ [ [ [ 15.349204, 56.277625 ], [ 15.348896, 56.273706 ], [ 15.347974, 56.269817 ], [ 15.34229, 56.249123 ], [ 15.340761, 56.245293 ], [ 15.338637, 56.241552 ], [ 15.335934, 56.237928 ], [ 15.332672, 56.234448 ], [ 15.328877, 56.23114 ], [ 15.324576, 56.228027 ], [ 15.319804, 56.225135 ], [ 15.314596, 56.222485 ], [ 15.308991, 56.220097 ], [ 15.303034, 56.217989 ], [ 15.296768, 56.216178 ], [ 15.290242, 56.214677 ], [ 15.283504, 56.213497 ], [ 15.276608, 56.212648 ], [ 15.269604, 56.212136 ], [ 15.262547, 56.211965 ], [ 15.25549, 56.212136 ], [ 15.248486, 56.212648 ], [ 15.24159, 56.213497 ], [ 15.234852, 56.214677 ], [ 15.228326, 56.216178 ], [ 15.22206, 56.217989 ], [ 15.216103, 56.220097 ], [ 15.210498, 56.222485 ], [ 15.20529, 56.225135 ], [ 15.200518, 56.228027 ], [ 15.196217, 56.23114 ], [ 15.192422, 56.234448 ], [ 15.18916, 56.237928 ], [ 15.186457, 56.241552 ], [ 15.184333, 56.245293 ], [ 15.182804, 56.249123 ], [ 15.181882, 56.253012 ], [ 15.181574, 56.256931 ], [ 15.181882, 56.26085 ], [ 15.182804, 56.264739 ], [ 15.188488, 56.285433 ], [ 15.190017, 56.289263 ], [ 15.192141, 56.293004 ], [ 15.194844, 56.296628 ], [ 15.198106, 56.300108 ], [ 15.201901, 56.303416 ], [ 15.206202, 56.306529 ], [ 15.210974, 56.309421 ], [ 15.216182, 56.312071 ], [ 15.221787, 56.314459 ], [ 15.227744, 56.316567 ], [ 15.23401, 56.318378 ], [ 15.240536, 56.319879 ], [ 15.247274, 56.321059 ], [ 15.25417, 56.321908 ], [ 15.261174, 56.32242 ], [ 15.268231, 56.322591 ], [ 15.275288, 56.32242 ], [ 15.282292, 56.321908 ], [ 15.289188, 56.321059 ], [ 15.295926, 56.319879 ], [ 15.302452, 56.318378 ], [ 15.308718, 56.316567 ], [ 15.314675, 56.314459 ], [ 15.32028, 56.312071 ], [ 15.325488, 56.309421 ], [ 15.33026, 56.306529 ], [ 15.334561, 56.303416 ], [ 15.338356, 56.300108 ], [ 15.341618, 56.296628 ], [ 15.344321, 56.293004 ], [ 15.346445, 56.289263 ], [ 15.347974, 56.285433 ], [ 15.348896, 56.281544 ], [ 15.349204, 56.277625 ] ] ] ] } },
{ "type": "Feature", "properties": { "id": "CTR.16182", "TYPEOFAREA": "CTR", "NAMEOFAREA": "RONNEBY CTR", "POSITIONIN": null, "NAMEOFOPER": null, "POSITIONINDICATOR": "ESDF", "DATETIMEOFCHG": null, "NAMEOFOPERATOR": null, "ORIGIN": "AIP", "LOCATION": "RONNEBY CTR", "UPPER": "1500", "LOWER": "GND", "WEF": "2026-08-06", "COMMENT_1": "C", "COMMENT_2": null, "QUALITY": "ROUTINE", "CRC_ID": null, "CRC_POS": null, "CRC_TOT": null, "MSID": 6432, "IDNR": 16182, "MI_STYLE": null, "Färg": "ORANGE", "layer": null, "path": null, "Länk": null, "TYPEOFPOIN": null, "NAMEOFPOIN": null, "TYPEOFPOINT": null, "NAMEOFPOINT": null, "ESTABLISHEDYEAR": null, "DRAWSEQNUMBER": null, "SEQUENCENUMBER": null, "COM_SE": null, "COM_EN": null, "MSL": null, "AGL": null, "ELLIPSOIDHEIGHT": null, "FREQ": null, "AFTN": null, "BASENO": null, "CRC_HEIGHT": null }, "geometry": { "type": "MultiPolygon", "coordinates": [ [ [ [ 15.154166666666725, 56.47416666666669 ], [ 15.475, 56.450277777777814 ], [ 15.414722222222165, 56.202222222222161 ], [ 15.331944444444396, 56.104722222222222 ], [ 15.115, 56.121111111111077 ], [ 15.097777777777834, 56.225555555555587 ], [ 15.154166666666725, 56.47416666666669 ] ] ] ] } },
{ "type": "Feature", "properties": { "id": "RSTA.29628", "TYPEOFAREA": "RSTA", "NAMEOFAREA": "ES R91", "POSITIONIN": null, "NAMEOFOPER": null, "POSITIONINDICATOR": "ESAA", "DATETIMEOFCHG": null, "NAMEOFOPERATOR": null, "ORIGIN": "AIP", "LOCATION": "ES R91 STÄRNÖ", "UPPER": "UNL", "LOWER": "GND", "WEF": "2026-08-06", "COMMENT_1": null, "COMMENT_2": "Tillstånd krävs endast när så tillkännages genom NOTAM eller AIP SUP.\n \nPermission required only when so is promulgated by NOTAM or AIP SUP.", "QUALITY": "ROUTINE", "CRC_ID": null, "CRC_POS": null, "CRC_TOT": null, "MSID": 4497, "IDNR": 29628, "MI_STYLE": null, "Färg": "RÖD", "layer": null, "path": null, "Länk": null, "TYPEOFPOIN": null, "NAMEOFPOIN": null, "TYPEOFPOINT": null, "NAMEOFPOINT": null, "ESTABLISHEDYEAR": null, "DRAWSEQNUMBER": null, "SEQUENCENUMBER": null, "COM_SE": null, "COM_EN": null, "MSL": null, "AGL": null, "ELLIPSOIDHEIGHT": null, "FREQ": null, "AFTN": null, "BASENO": null, "CRC_HEIGHT": null }, "geometry": { "type": "MultiPolygon", "coordinates": [ [ [ [ 14.846944444444377, 56.114761536794191 ], [ 14.84273226832887, 56.114865662758717 ], [ 14.838552990377318, 56.115177227394213 ], [ 14.834439253394722, 56.115693797239516 ], [ 14.830423191400778, 56.116411337520901 ], [ 14.826536180057335, 56.117324243478095 ], [ 14.822808592839744, 56.1184253838872 ], [ 14.819269564811561, 56.119706156451315 ], [ 14.815946765800588, 56.121156554638617 ], [ 14.812866184716304, 56.122765245459021 ], [ 14.810051926669329, 56.124519657588223 ], [ 14.807526024463471, 56.126406079166713 ], [ 14.805308265932501, 56.128409764527618 ], [ 14.803416038477101, 56.130515049034528 ], [ 14.801864192039798, 56.13270547115053 ], [ 14.8006649216178, 56.134963900797572 ], [ 14.799827670272542, 56.137272673017804 ], [ 14.799359053443736, 56.139613725902734 ], [ 14.799262805215115, 56.141968741720831 ], [ 14.799539747013361, 56.144319290147109 ], [ 14.80018777905039, 56.146646972477299 ], [ 14.801201894642059, 56.148933565698911 ], [ 14.802574217357705, 56.151161165288812 ], [ 14.804294060772868, 56.153312325616298 ], [ 14.806348010418439, 56.155370196841318 ], [ 14.808720027335227, 56.15731865722762 ], [ 14.811391572471404, 56.159142439820243 ], [ 14.814341750983264, 56.160827252480232 ], [ 14.817547475335191, 56.162359890321483 ], [ 14.820983645936533, 56.1637283396486 ], [ 14.824623347903838, 56.164921872567078 ], [ 14.828438062397806, 56.165931131504209 ], [ 14.832397890860356, 56.166748202963817 ], [ 14.836471790363834, 56.167366679919496 ], [ 14.840627818187741, 56.16778171234489 ], [ 14.844833383659644, 56.167990045472322 ], [ 14.849055505229199, 56.167990045472322 ], [ 14.853261070701102, 56.16778171234489 ], [ 14.857417098525008, 56.167366679919496 ], [ 14.861490998028303, 56.166748202963817 ], [ 14.865450826490857, 56.165931131504209 ], [ 14.869265540985001, 56.164921872567078 ], [ 14.87290524295231, 56.1637283396486 ], [ 14.876341413553561, 56.162359890321483 ], [ 14.879547137905485, 56.160827252480232 ], [ 14.882497316417442, 56.159142439820243 ], [ 14.885168861553611, 56.15731865722762 ], [ 14.887540878470311, 56.155370196841318 ], [ 14.889594828115884, 56.153312325616298 ], [ 14.891314671531136, 56.151161165288812 ], [ 14.892686994246693, 56.148933565698911 ], [ 14.893701109838272, 56.146646972477299 ], [ 14.894349141875395, 56.144319290147109 ], [ 14.894626083673726, 56.141968741720831 ], [ 14.894529835445107, 56.139613725902734 ], [ 14.894061218616297, 56.137272673017804 ], [ 14.893223967271041, 56.134963900797572 ], [ 14.892024696848956, 56.13270547115053 ], [ 14.890472850411742, 56.130515049034528 ], [ 14.888580622956344, 56.128409764527618 ], [ 14.886362864425285, 56.126406079166713 ], [ 14.883836962219512, 56.124519657588223 ], [ 14.881022704172539, 56.122765245459021 ], [ 14.877942123088072, 56.121156554638617 ], [ 14.874619324077189, 56.119706156451315 ], [ 14.871080296049101, 56.1184253838872 ], [ 14.867352708831506, 56.117324243478095 ], [ 14.863465697487971, 56.116411337520901 ], [ 14.859449635494119, 56.115693797239516 ], [ 14.855335898511434, 56.115177227394213 ], [ 14.851156620559886, 56.114865662758717 ], [ 14.846944444444377, 56.114761536794191 ] ] ] ] } },
{ "type": "Feature", "properties": { "id": "RWY5K.1", "TYPEOFAREA": "RW-5K", "NAMEOFAREA": "STURUP CTR", "POSITIONIN": "ESMS", "NAMEOFOPER": "", "POSITIONINDICATOR": null, "DATETIMEOFCHG": null, "NAMEOFOPERATOR": null, "ORIGIN": null, "LOCATION": "", "UPPER": null, "LOWER": null, "WEF": null, "COMMENT_1": "", "COMMENT_2": null, "QUALITY": null, "CRC_ID": null, "CRC_POS": null, "CRC_TOT": null, "MSID": null, "IDNR": null, "MI_STYLE": null, "Färg": "RÖD", "layer": null, "path": null, "Länk": null, "TYPEOFPOIN": null, "NAMEOFPOIN": null, "TYPEOFPOINT": null, "NAMEOFPOINT": null, "ESTABLISHEDYEAR": null, "DRAWSEQNUMBER": null, "SEQUENCENUMBER": null, "COM_SE": null, "COM_EN": null, "MSL": null, "AGL": null, "ELLIPSOIDHEIGHT": null, "FREQ": null, "AFTN": null, "BASENO": null, "CRC_HEIGHT": null }, "geometry": { "type": "MultiPolygon", "coordinates": [ [ [ [ 13.458371, 55.523078 ], [ 13.458069, 55.519159 ], [ 13.457164, 55.51527 ], [ 13.455664, 55.51144 ], [ 13.453579, 55.507699 ], [ 13.450926, 55.504075 ], [ 13.447726, 55.500595 ], [ 13.444001, 55.497287 ], [ 13.439781, 55.494174 ], [ 13.435098, 55.491282 ], [ 13.429987, 55.488632 ], [ 13.424488, 55.486244 ], [ 13.418641, 55.484136 ], [ 13.412492, 55.482325 ], [ 13.408708, 55.481438 ], [ 13.405534, 55.480503 ], [ 13.399132, 55.479002 ], [ 13.392523, 55.477822 ], [ 13.385757, 55.476973 ], [ 13.378887, 55.476461 ], [ 13.371964, 55.47629 ], [ 13.365041, 55.476461 ], [ 13.358171, 55.476973 ], [ 13.351405, 55.477822 ], [ 13.339224, 55.47971 ], [ 13.332615, 55.48089 ], [ 13.326213, 55.482391 ], [ 13.320066, 55.484202 ], [ 13.314222, 55.48631 ], [ 13.308724, 55.488698 ], [ 13.303615, 55.491348 ], [ 13.298934, 55.49424 ], [ 13.294715, 55.497353 ], [ 13.290992, 55.500661 ], [ 13.287792, 55.504141 ], [ 13.28514, 55.507765 ], [ 13.283056, 55.511506 ], [ 13.281557, 55.515336 ], [ 13.280652, 55.519225 ], [ 13.28035, 55.523144 ], [ 13.280652, 55.527063 ], [ 13.281557, 55.530952 ], [ 13.283056, 55.534782 ], [ 13.28514, 55.538523 ], [ 13.287792, 55.542147 ], [ 13.290992, 55.545627 ], [ 13.294362, 55.548621 ], [ 13.29462, 55.551975 ], [ 13.295525, 55.555864 ], [ 13.297025, 55.559694 ], [ 13.29911, 55.563435 ], [ 13.301763, 55.567059 ], [ 13.304963, 55.570539 ], [ 13.308688, 55.573847 ], [ 13.312908, 55.57696 ], [ 13.317591, 55.579852 ], [ 13.322702, 55.582502 ], [ 13.328201, 55.58489 ], [ 13.334048, 55.586998 ], [ 13.340197, 55.588809 ], [ 13.346601, 55.59031 ], [ 13.353212, 55.59149 ], [ 13.35998, 55.592339 ], [ 13.366853, 55.592851 ], [ 13.373778, 55.593022 ], [ 13.380703, 55.592851 ], [ 13.387576, 55.592339 ], [ 13.394344, 55.59149 ], [ 13.400955, 55.59031 ], [ 13.407359, 55.588809 ], [ 13.413508, 55.586998 ], [ 13.419355, 55.58489 ], [ 13.424854, 55.582502 ], [ 13.429965, 55.579852 ], [ 13.434648, 55.57696 ], [ 13.438868, 55.573847 ], [ 13.442593, 55.570539 ], [ 13.445793, 55.567059 ], [ 13.448446, 55.563435 ], [ 13.450531, 55.559694 ], [ 13.452031, 55.555864 ], [ 13.452936, 55.551975 ], [ 13.458069, 55.526997 ], [ 13.458371, 55.523078 ] ] ] ] } },
{ "type": "Feature", "properties": { "id": "CTR.16173", "TYPEOFAREA": "CTR", "NAMEOFAREA": "STURUP CTR", "POSITIONIN": null, "NAMEOFOPER": null, "POSITIONINDICATOR": "ESMS", "DATETIMEOFCHG": null, "NAMEOFOPERATOR": null, "ORIGIN": "AIP", "LOCATION": "STURUP CTR", "UPPER": "2000", "LOWER": "GND", "WEF": "2026-08-06", "COMMENT_1": "C", "COMMENT_2": null, "QUALITY": "ROUTINE", "CRC_ID": null, "CRC_POS": null, "CRC_TOT": null, "MSID": 4765, "IDNR": 16173, "MI_STYLE": null, "Färg": "ORANGE", "layer": null, "path": null, "Länk": null, "TYPEOFPOIN": null, "NAMEOFPOIN": null, "TYPEOFPOINT": null, "NAMEOFPOINT": null, "ESTABLISHEDYEAR": null, "DRAWSEQNUMBER": null, "SEQUENCENUMBER": null, "COM_SE": null, "COM_EN": null, "MSL": null, "AGL": null, "ELLIPSOIDHEIGHT": null, "FREQ": null, "AFTN": null, "BASENO": null, "CRC_HEIGHT": null }, "geometry": { "type": "MultiPolygon", "coordinates": [ [ [ [ 13.453055555555602, 55.673333333333289 ], [ 13.5375, 55.552777777777806 ], [ 13.521944444444442, 55.41 ], [ 13.305555555555584, 55.395555555555603 ], [ 13.215277777777811, 55.51694444444442 ], [ 13.229722222222192, 55.658611111111099 ], [ 13.453055555555602, 55.673333333333289 ] ] ] ] } }
]
}
